{"type":"FeatureCollection","features":[{"type":"Feature","id":"way/39223162","properties":{"amenity":"hospital","building:levels":"10","emergency":"yes","healthcare":"hospital","name":"ब्रीच कँडी हॉस्पिटल","name:en":"Breach Candy Hospital","name:hi":"ब्रीच कैंडी अस्पताल","source":"Yahoo","wikidata":"Q4959103","wikipedia":"en:Breach Candy Hospital","id":"way/39223162"},"geometry":{"type":"Point","coordinates":[72.8043143,18.9725946]}},{"type":"Feature","id":"way/39838498","properties":{"amenity":"hospital","building":"apartments","name":"Ruxmani Lying in Hospital","id":"way/39838498"},"geometry":{"type":"Point","coordinates":[72.8092739,18.9577305]}},{"type":"Feature","id":"way/56199740","properties":{"addr:city":"Mumbai","addr:district":"Mumbai","addr:full":"15/17, Maharshi Karve Marg","addr:postcode":"400004","addr:state":"Maharashtra","addr:street":"Maharshi Karve Road","amenity":"hospital","building":"yes","email":"write@saifeehospital.com","emergency":"yes","healthcare":"hospital","healthcare:speciality":"general;gynaecology;cardiology;surgery","name":"Saifee Hospital","name:en":"Saifee Hospital","name:etymology:wikidata":"Q7675438","operator:type":"private","source":"OpenGovernmentData","website":"https://www.saifeehospital.com/","wikidata":"Q7400018","wikimedia_commons":"Category:Saifee Hospital","wikipedia":"en:Saifee Hospital","id":"way/56199740"},"geometry":{"type":"Point","coordinates":[72.8181834,18.9525375]}},{"type":"Feature","id":"way/113561019","properties":{"amenity":"hospital","check_date":"2026-03-20","healthcare":"hospital","name":"Mahatma Gandhi Memorial Hospital","name:etymology:wikidata":"Q1001","id":"way/113561019"},"geometry":{"type":"Point","coordinates":[72.8420761,18.9970247]}},{"type":"Feature","id":"way/113570522","properties":{"addr:district":"Mumbai","addr:full":"Mumbai","addr:postcode":"400001","addr:state":"Maharashtra","amenity":"hospital","healthcare":"hospital","healthcare:speciality":"radiology","name":"Tata Memorial Cancer Hospital","source":"OpenGovernmentData","id":"way/113570522"},"geometry":{"type":"Point","coordinates":[72.8430551,19.0056725]}},{"type":"Feature","id":"way/113576203","properties":{"addr:city":"Mumbai","addr:postcode":"400012","addr:street":"Acharya Donde Marg","amenity":"hospital","healthcare":"hospital","historic":"public","name":"Haffkine Institute For Training, Research & Testing","old_name":"Government House","website":"http://www.haffkineinstitute.org/","id":"way/113576203"},"geometry":{"type":"Point","coordinates":[72.8454114,19.0024414]}},{"type":"Feature","id":"way/113716576","properties":{"amenity":"hospital","healthcare":"hospital","name":"Hinduja Clinic","id":"way/113716576"},"geometry":{"type":"Point","coordinates":[72.8390982,19.0330728]}},{"type":"Feature","id":"way/113716578","properties":{"amenity":"hospital","healthcare":"hospital","name":"Hinduja Hospital","id":"way/113716578"},"geometry":{"type":"Point","coordinates":[72.838172,19.0332293]}},{"type":"Feature","id":"way/150485811","properties":{"addr:district":"Mumbai","addr:full":"15, Near Sophia College, Dr.G.Deshmukh Marg,Pedder Road, Cumballa Hill","addr:postcode":"400026","addr:state":"Maharashtra","addr:street":"Pedder Road (Gopalrao Deshmukh Marg)","amenity":"hospital","emergency":"yes","healthcare":"hospital","name":"Jaslok Hospital and Research Centre","name:hi":"जसलोक रुग्णालय","source":"OpenGovernmentData","wikidata":"Q6161662","wikipedia":"en:Jaslok Hospital","id":"way/150485811"},"geometry":{"type":"Point","coordinates":[72.8099417,18.9715529]}},{"type":"Feature","id":"way/151806615","properties":{"addr:city":"Mumbai","amenity":"hospital","building":"apartments","building:levels":"15","healthcare":"hospital","name":"Lalita Girdhar (Hinduja Hospital)","id":"way/151806615"},"geometry":{"type":"Point","coordinates":[72.8396234,19.0319344]}},{"type":"Feature","id":"way/202918725","properties":{"addr:district":"Mumbai","addr:full":"Raheja Rugnalaya Marg, Mahim (West)","addr:postcode":"400016","addr:state":"Maharashtra","addr:street":"SL Raheja Hospital Marg","amenity":"hospital","healthcare":"hospital","name":"S.L. Raheja Hospital","name:en":"S.L. Raheja Hospital","source":"OpenGovernmentData","id":"way/202918725"},"geometry":{"type":"Point","coordinates":[72.842497,19.0464144]}},{"type":"Feature","id":"way/288426702","properties":{"addr:city":"Mumbai","addr:district":"Mumbai","addr:full":"8-10 S V Sovani Path Conwest Jain Clinic Chowk Khadilkar Road Girgaum","addr:postcode":"400004","addr:state":"Maharashtra","addr:street":"Kotachi Wadi","amenity":"hospital","building":"hospital","building:levels":"6","healthcare":"hospital","healthcare:speciality":"general","name":"Conwest And Manjula S. Badani Jain Hospital","source":"OpenGovernmentData","website":"https://www.cmjhospital.in/","id":"way/288426702"},"geometry":{"type":"Point","coordinates":[72.8210971,18.9547457]}},{"type":"Feature","id":"way/288446227","properties":{"addr:city":"Mumbai","addr:district":"Mumbai","addr:full":"Padmashri Gordhanbapa Chowk, Raja Ram Mohan Roy Road Girgaon","addr:postcode":"400004","addr:state":"Maharashtra","addr:street":"Raja Ram Mohan Roy Road (Charni Road)","amenity":"hospital","building":"hospital","building:levels":"15","healthcare":"hospital","name":"Sir H. N. Hospital & Research Centre;Sir H.N Reliance foundation hospital","outdoor_seating":"no","source":"OpenGovernmentData","wikidata":"Q16892546","wikimedia_commons":"Category:Sir H. N. Reliance Foundation Hospital","wikipedia":"en:Sir H. N. Reliance Foundation Hospital","id":"way/288446227"},"geometry":{"type":"Point","coordinates":[72.8201232,18.9589651]}},{"type":"Feature","id":"way/353353382","properties":{"addr:district":"Mumbai City","addr:full":"Everest Building, 156, Tardeo Road, Tardeo, Mumbai","addr:postcode":"400034","addr:state":"Maharastra","amenity":"hospital","building":"hospital","building:levels":"10","healthcare":"hospital","name":"Apollo Spectra Hospitals","source":"Local Knowledge","id":"way/353353382"},"geometry":{"type":"Point","coordinates":[72.8146155,18.9703842]}},{"type":"Feature","id":"way/353772277","properties":{"amenity":"hospital","healthcare":"hospital","name":"Maru Hospital","id":"way/353772277"},"geometry":{"type":"Point","coordinates":[72.8370238,18.9982979]}},{"type":"Feature","id":"way/353799754","properties":{"addr:district":"Mumbai","addr:full":"Victoria Road, Cross Lane No.Iii, Byculla (E)","addr:postcode":"400027","addr:state":"Maharashtra","amenity":"hospital","name":"Balaji Hospital","source":"OpenGovernmentData","id":"way/353799754"},"geometry":{"type":"Point","coordinates":[72.8353539,18.9772369]}},{"type":"Feature","id":"way/356207236","properties":{"addr:city":"Mumbai","addr:district":"Mumbai","addr:postcode":"400009","addr:street":"A N Surve Marg (Umerkhadi Road)","amenity":"hospital","emergency":"yes","healthcare":"hospital","healthcare:speciality":"gynaecology;radiology;orthodontics;emergency;maternity","name":"umerkhadi hospital","id":"way/356207236"},"geometry":{"type":"Point","coordinates":[72.8365872,18.9613939]}},{"type":"Feature","id":"way/357360289","properties":{"addr:city":"Mumbai","addr:district":"Mumbai","addr:housenumber":"43","addr:postcode":"400016","addr:street":"Takandas H. Kataria Marg","amenity":"hospital","emergency":"yes","healthcare":"hospital","healthcare:speciality":"general","name":"smriti narvekar","opening_hours":"Mo-Fr 08:00-17:00","id":"way/357360289"},"geometry":{"type":"Point","coordinates":[72.8439961,19.0314175]}},{"type":"Feature","id":"way/430029987","properties":{"addr:district":"Mumbai","addr:full":"Parel","addr:postcode":"400012","addr:state":"Maharashtra","amenity":"hospital","check_date":"2026-03-20","healthcare":"hospital","name":"K B H B Charitable Ophthalmic and E.N.T Hospital","source":"OpenGovernmentData","id":"way/430029987"},"geometry":{"type":"Point","coordinates":[72.840422,19.0023454]}},{"type":"Feature","id":"way/430223744","properties":{"addr:district":"Mumbai","addr:full":"Dr. B.A.Ambedkar Central Railway Hospital, Opp. Ranibag, BYCULLA MUMBAI","addr:postcode":"400027","addr:state":"Maharashtra","amenity":"hospital","description":"Civil Hospital/General Hospital","healthcare":"hospital","name":"Dr. Babasaheb Ambedkar Memorial Central Railway Hospital","name:etymology:wikidata":"Q231690","source":"OpenGovernmentData","wheelchair":"yes","id":"way/430223744"},"geometry":{"type":"Point","coordinates":[72.8335812,18.9801469]}},{"type":"Feature","id":"way/618791586","properties":{"addr:district":"Mumbai","addr:full":"Acharya Donde Marg, Parel East, Parel","addr:postcode":"400012","addr:state":"Maharashtra","amenity":"hospital","check_date":"2026-03-20","healthcare":"hospital","healthcare:speciality":"paediatrics","name":"Nowrosjee Wadia Maternity Hospital","source":"OpenGovernmentData","id":"way/618791586"},"geometry":{"type":"Point","coordinates":[72.8423727,19.0036051]}},{"type":"Feature","id":"way/803325198","properties":{"addr:city":"Mumbai","addr:district":"Mumbai City","addr:postcode":"400008","addr:state":"Maharastra","amenity":"hospital","beds":"2844","email":"info@ggmcjjh.com","health_amenity:type":"emergency_department;intensive_care_unit;operating_theater;ultrasound;x_ray","healthcare":"hospital","name":"J. J. Hospital","name:en":"Grant Medical College and Sir Jamshedjee Jeejeebhoy Group of Hospitals","name:etymology:wikidata":"Q13604560","phone":"+912223735555","source":"Local Knowledge","website":"https://ggmcjjh.com/","id":"way/803325198"},"geometry":{"type":"Point","coordinates":[72.8347891,18.9638574]}},{"type":"Feature","id":"way/851756494","properties":{"amenity":"hospital","healthcare":"hospital","id":"way/851756494"},"geometry":{"type":"Point","coordinates":[72.8387699,18.9675374]}},{"type":"Feature","id":"node/860315256","properties":{"amenity":"hospital","healthcare":"hospital","name":"Saifee Ambulance","source":"GPS","id":"node/860315256"},"geometry":{"type":"Point","coordinates":[72.8314957,18.9599377]}},{"type":"Feature","id":"way/1121494180","properties":{"addr:city":"Mumbai","addr:postcode":"400008","addr:street":"Maratha Mandir Marg, RBI Staff Colony","amenity":"hospital","check_date":"2026-03-20","emergency":"yes","healthcare":"hospital","name":"Jagjivan Ram Hospital","name:etymology:wikidata":"Q1471625","phone":"+91 22 6764 3224","id":"way/1121494180"},"geometry":{"type":"Point","coordinates":[72.824078,18.9704307]}},{"type":"Feature","id":"way/1159753733","properties":{"addr:district":"Mumbai","addr:full":"Bomanjee Petit Road, Cumballa Hill","addr:postcode":"400036","addr:state":"Maharashtra","amenity":"hospital","email":"ceo@bdppgh.org; contact@bdppgh.org","healthcare":"hospital","name":"The B.D.Petit Parsee General Hospital","operator:type":"private","source":"OpenGovernmentData","website":"https://www.bdpetitparseegeneralhospital.org/","wikidata":"Q60765656","wikipedia":"en:B.D. Petit Parsee General Hospital","id":"way/1159753733"},"geometry":{"type":"Point","coordinates":[72.8056228,18.968823]}},{"type":"Feature","id":"way/1186783958","properties":{"addr:district":"Mumbai","addr:full":"Jeevan Hall Building, 2-A, Dharavi Main Road","addr:postcode":"400017","addr:state":"Maharashtra","amenity":"hospital","name":"Ayurseva Hospital","source":"OpenGovernmentData","id":"way/1186783958"},"geometry":{"type":"Point","coordinates":[72.8498402,19.0434342]}},{"type":"Feature","id":"way/1289053364","properties":{"addr:city":"Mumbai","addr:postcode":"400027","addr:street":"Sant Savata Marg","amenity":"hospital","emergency":"yes","healthcare":"hospital","healthcare:speciality":"gynaecology;orthopaedics;plastic_surgery;psychiatry;paediatrics;oncology","name":"Masina Hospital","website":"https://www.masinahospital.com/","id":"way/1289053364"},"geometry":{"type":"Point","coordinates":[72.8355699,18.9746274]}},{"type":"Feature","id":"way/1289063015","properties":{"addr:district":"Thane","addr:full":"Police Station, 1877 Doctor Anandrao Nair Marg Near Agripada, Mumbai Central","addr:postcode":"400011","addr:state":"Maharashtra","amenity":"hospital","check_date":"2026-03-20","healthcare":"hospital","name":"Wockhardt Hospitals, South Mumbai","source":"OpenGovernmentData","id":"way/1289063015"},"geometry":{"type":"Point","coordinates":[72.8239654,18.9752098]}},{"type":"Feature","id":"way/1289073489","properties":{"addr:district":"Mumbai","addr:full":"1-1A, Keshavrao Khadye Marg, Haji Ali, Mumbai","addr:postcode":"400034","addr:state":"Maharashtra","amenity":"hospital","name":"NH SRCC Children's Hospital","source":"Local Knowledge","id":"way/1289073489"},"geometry":{"type":"Point","coordinates":[72.8127975,18.9790957]}},{"type":"Feature","id":"way/1329415478","properties":{"amenity":"hospital","healthcare":"hospital","name":"Head And Neck Cancer Institute Of India","id":"way/1329415478"},"geometry":{"type":"Point","coordinates":[72.845704,18.9702768]}},{"type":"Feature","id":"way/1411712168","properties":{"amenity":"hospital","check_date":"2026-03-20","healthcare":"hospital","name":"King George V Infimary","id":"way/1411712168"},"geometry":{"type":"Point","coordinates":[72.8231976,18.9886387]}},{"type":"Feature","id":"way/1471965392","properties":{"addr:district":"Mumbai","addr:full":"698-B,Ranade Road, Dadar","addr:postcode":"400028","addr:state":"Maharashtra","amenity":"hospital","healthcare":"hospital","name":"Shushrusha Citizens Co-Op Hospital Ltd.","source":"OpenGovernmentData","id":"way/1471965392"},"geometry":{"type":"Point","coordinates":[72.8378165,19.0233568]}},{"type":"Feature","id":"node/4209578999","properties":{"addr:district":"Mumbai","addr:full":"Chikalwadi, J Dadaji Road, Tardeo","addr:postcode":"400007","addr:state":"Maharashtra","addr:street":"Tukaram Javji Marg","amenity":"hospital","email":"info@bhatiahospital.org","healthcare":"hospital","name":"Bhatia","name:en":"Bhatia Hospital","opening_hours":"24/7","operator:type":"private","source":"OpenGovernmentData","website":"www.bhatiahospital.org","id":"node/4209578999"},"geometry":{"type":"Point","coordinates":[72.8135089,18.9656765]}},{"type":"Feature","id":"node/4672225593","properties":{"addr:street":"Mia Mohd Chhotani Road","amenity":"hospital","healthcare":"hospital","name":"Pikale Hospital","name:en":"Pikale Hospital","name:hi":"पिकाले अस्पताल","id":"node/4672225593"},"geometry":{"type":"Point","coordinates":[72.844575,19.0401523]}},{"type":"Feature","id":"node/5085177621","properties":{"addr:city":"Mumbai","addr:housenumber":"3 Kala Bhavan","addr:postcode":"400010","addr:street":"Mathew Road","addr:unit":"14","amenity":"clinic","description":"Eye and Dental Clinic\nEmergency Appointments available","email":"areteclinics@gmail.com","healthcare":"clinic","name":"Arete Clinics- Eye and Dental","name:en":"Arete Clinics- Eye and Dental","opening_hours":"Mo-Sa 10:00-19:00","phone":"+912223645350","website":"http://www.areteclinics.in","wheelchair":"limited","id":"node/5085177621"},"geometry":{"type":"Point","coordinates":[72.8151134,18.9559804]}},{"type":"Feature","id":"node/5090930970","properties":{"amenity":"hospital","name":"Peoples Mobile Hospitals","id":"node/5090930970"},"geometry":{"type":"Point","coordinates":[72.8179411,19.0066529]}},{"type":"Feature","id":"node/5099872961","properties":{"addr:city":"Mumbai","addr:district":"Mumbai","addr:full":"35 Dr E Borges Road, Hospital Avenue, Opposite Shirodkar High School, Parel","addr:postcode":"400012","addr:state":"Maharashtra","addr:street":"Dr Ernest Borges Marg","amenity":"hospital","contact:phone":"+91-22-67670101","email":"info.mum@gleneagleshospitals.co.in","emergency":"yes","healthcare":"hospital","name":"Gleneagles Hospital Super Speciality and Transplant Center","operator":"Gleneagles Hospital","operator:type":"private","source":"OpenGovernmentData","website":"https://www.gleneagleshospitals.co.in","website:1":"https://www.spineexpertmumbai.com/","id":"node/5099872961"},"geometry":{"type":"Point","coordinates":[72.8405011,18.9994432]}},{"type":"Feature","id":"node/5193467221","properties":{"amenity":"hospital","healthcare":"hospital","name:en":"Jaslok Hospital","id":"node/5193467221"},"geometry":{"type":"Point","coordinates":[72.8371432,18.9534957]}},{"type":"Feature","id":"node/5206554121","properties":{"addr:housenumber":"7","addr:street":"August Kranti Marg","amenity":"hospital","healthcare":"hospital","name:en":"Dr. Sunil n. vasani","opening_hours":"Mo-Su 16:00-18:00","id":"node/5206554121"},"geometry":{"type":"Point","coordinates":[72.8054881,18.9645402]}},{"type":"Feature","id":"node/5208044723","properties":{"addr:housenumber":"7","addr:street":"August Kranti Marg","amenity":"clinic","healthcare":"clinic","internet_access":"wlan","name:ar":"مستشفى العيون التخصصي/ دكتور سونيل فاساني","name:en":"Eyesrus Ophthalmic/eye hospital","opening_hours":"Mo-Su 10:00-20:00","operator":"Dr. Sunil N. Vasani","phone":"00912223873899","website":"http://www.eyesrus.com","id":"node/5208044723"},"geometry":{"type":"Point","coordinates":[72.8106975,18.9632877]}},{"type":"Feature","id":"node/6292840586","properties":{"amenity":"clinic","healthcare":"clinic","name":"Nicholson Eye Clinic","id":"node/6292840586"},"geometry":{"type":"Point","coordinates":[72.8195439,18.9617036]}},{"type":"Feature","id":"node/6991331185","properties":{"addr:housenumber":"400028","addr:street":"D L Vaidya Marg","amenity":"hospital","healthcare":"hospital","name:en":"DHANVANTARI HOSPITAL","id":"node/6991331185"},"geometry":{"type":"Point","coordinates":[72.8407113,19.0239187]}},{"type":"Feature","id":"node/7043071383","properties":{"addr:district":"Mumbai","addr:full":"5,Pashmina Peddar Road","addr:postcode":"400026","addr:state":"Maharashtra","amenity":"clinic","healthcare":"clinic","name":"Soonawala Clinic","source":"OpenGovernmentData","id":"node/7043071383"},"geometry":{"type":"Point","coordinates":[72.8090102,18.9678956]}},{"type":"Feature","id":"node/7043448094","properties":{"addr:district":"Mumbai","addr:full":"(Dr Mangeshikar Clinic) Madhav Niwas , 8. Laburnum Road , Bombay","addr:postcode":"400007","addr:state":"Maharashtra","amenity":"hospital","name":"Mangeshikar Access Gynecology and Infertility Center","source":"OpenGovernmentData","id":"node/7043448094"},"geometry":{"type":"Point","coordinates":[72.8102066,18.9603152]}},{"type":"Feature","id":"node/7043534838","properties":{"addr:district":"Mumbai","addr:full":"157 Bhagyalaxmi, 3rd Floor, Sir Bhalchandra Road, Hindu Colony, Dadar","addr:postcode":"400014","addr:state":"Maharashtra","amenity":"clinic","email":"info@khandeparkarsivf.com","healthcare":"clinic","name":"Dr Khandeparkar's Nursing Home","source":"OpenGovernmentData","website":"https://khandeparkarsivf.com/","id":"node/7043534838"},"geometry":{"type":"Point","coordinates":[72.8496136,19.0217715]}},{"type":"Feature","id":"node/7043746201","properties":{"addr:district":"Mumbai","addr:full":"Dadar","addr:postcode":"400014","addr:state":"Maharashtra","amenity":"clinic","check_date":"2026-03-20","name":"Ashirvad Clinic(Dr.Vandana Walvekar)","source":"OpenGovernmentData","id":"node/7043746201"},"geometry":{"type":"Point","coordinates":[72.8474732,19.0207952]}},{"type":"Feature","id":"node/7044064894","properties":{"addr:district":"Mumbai","addr:full":"Meghdoot, S.H.Paralkar Marg, Shivaji Park, Dadar (W)","addr:postcode":"400028","addr:state":"Maharashtra","amenity":"hospital","healthcare":"hospital","name":"Dr.Vaze Hospital","source":"OpenGovernmentData","id":"node/7044064894"},"geometry":{"type":"Point","coordinates":[72.8368979,19.0240308]}},{"type":"Feature","id":"node/7044071693","properties":{"addr:district":"Mumbai","addr:full":"Gyaneshwar Apts, 2nd Floor, Off Veer Savarkar Marg, Prabhadevi","addr:postcode":"400025","addr:state":"Maharashtra","amenity":"hospital","email":"hkkothawala@yahoo.com","healthcare":"hospital","name":"Asha Surgical and Maternity Home","phone":"09821662821","source":"OpenGovernmentData","id":"node/7044071693"},"geometry":{"type":"Point","coordinates":[72.8283792,19.0135345]}},{"type":"Feature","id":"node/7044466685","properties":{"addr:district":"Mumbai","addr:full":"E -1st Floor, Bhaveshwar Vihar Svp Road, Prathna Samaj,Opposite Hurkiondas Hospital, Girgaum","addr:postcode":"400004","addr:state":"Maharashtra","amenity":"hospital","healthcare":"hospital","name":"Dr. Yash Shah Total Eye Care","source":"OpenGovernmentData","id":"node/7044466685"},"geometry":{"type":"Point","coordinates":[72.821319,18.9576821]}},{"type":"Feature","id":"node/7044553386","properties":{"addr:district":"Mumbai","addr:full":"166-C Krishna Kunj,Khareghat Road, Dr.Ambedkar Road,Dadar( E)","addr:postcode":"400014","addr:state":"Maharashtra","amenity":"hospital","name":"Krishna Cardiac Care Centre, Mumbai","source":"OpenGovernmentData","id":"node/7044553386"},"geometry":{"type":"Point","coordinates":[72.8486822,19.0196598]}},{"type":"Feature","id":"node/7044779630","properties":{"addr:district":"Mumbai","addr:full":"No. B-104, 105, 1st Floor, Prithvi Vandan Co-Operative Hsg.Soc., OppositeN.M.Joshi Marg Police Station, Delisle Road, Parel","addr:postcode":"400013","addr:state":"Maharashtra","amenity":"clinic","check_date":"2026-03-20","healthcare":"clinic","name":"Dr Nerurkars Harish Nursing Home","source":"OpenGovernmentData","id":"node/7044779630"},"geometry":{"type":"Point","coordinates":[72.831278,18.9926281]}},{"type":"Feature","id":"node/7045065720","properties":{"addr:district":"Mumbai","addr:full":"Hospital Address: Krishna Nivas, Junction Of Karve Road , & R R Roy Road, Girgaon","addr:postcode":"400004","addr:state":"Maharashtra","amenity":"clinic","healthcare":"clinic","name":"Ursekar Laser and Microssurgery Eye Clinic","source":"OpenGovernmentData","id":"node/7045065720"},"geometry":{"type":"Point","coordinates":[72.8177213,18.9529564]}},{"type":"Feature","id":"node/7045291440","properties":{"addr:district":"Mumbai","addr:full":"Ishaan, 1st Floor, Khed Gully, Prabhadevi, Dadar West","addr:postcode":"400025","addr:state":"Maharashtra","amenity":"hospital","healthcare":"hospital","name":"Siddivinayak Healthcare Pvt Ltd","source":"OpenGovernmentData","id":"node/7045291440"},"geometry":{"type":"Point","coordinates":[72.8325856,19.0139586]}},{"type":"Feature","id":"node/7047598027","properties":{"addr:district":"Mumbai","addr:full":"Subh Ashish, Subhash Nagar, Estate N M Joshi Marg","addr:postcode":"400011","addr:state":"Maharashtra","amenity":"hospital","name":"Nirmala Maternity and Surgical Hospital with Polyclinic","source":"OpenGovernmentData","id":"node/7047598027"},"geometry":{"type":"Point","coordinates":[72.8306866,18.9868937]}},{"type":"Feature","id":"node/7047712193","properties":{"addr:district":"Mumbai","addr:full":"409 , Om Kemp Corner","addr:postcode":"400089","addr:state":"Maharashtra","amenity":"clinic","healthcare":"clinic","name":"Kapoor Eye Center","source":"OpenGovernmentData","id":"node/7047712193"},"geometry":{"type":"Point","coordinates":[72.8072011,18.9633325]}},{"type":"Feature","id":"node/7047933154","properties":{"addr:district":"Mumbai","addr:full":"Royal Garden Next To Girnar Tower Ambawadi Kalachowki","addr:postcode":"400033","addr:state":"Maharashtra","amenity":"hospital","name":"Aryan Hospital and Icu","source":"OpenGovernmentData","id":"node/7047933154"},"geometry":{"type":"Point","coordinates":[72.8412236,18.9898598]}},{"type":"Feature","id":"node/7047947069","properties":{"addr:district":"Mumbai","addr:full":"15 Dar Ui Muluk 26 Pandita Ramabai Road","addr:postcode":"400007","addr:state":"Maharashtra","amenity":"clinic","name":"The Vascular Clinic","source":"OpenGovernmentData","id":"node/7047947069"},"geometry":{"type":"Point","coordinates":[72.8109965,18.9585078]}},{"type":"Feature","id":"node/7048084564","properties":{"addr:district":"Mumbai","addr:full":"Dr Ernest Borges Rd, Parel East,","addr:postcode":"400012","addr:state":"Maharashtra","amenity":"clinic","check_date":"2026-03-20","name":"Dr Chetan Shetty- Birth & Beyond Clinic Clinic","source":"OpenGovernmentData","id":"node/7048084564"},"geometry":{"type":"Point","coordinates":[72.840364,19.0010848]}},{"type":"Feature","id":"node/7048433639","properties":{"addr:district":"Mumbai","addr:full":"105 A&C & 405 A Sukh Sagar, N.S. Patkar Marg, Opera House","addr:postcode":"400007","addr:state":"Maharashtra","amenity":"hospital","healthcare":"hospital","name":"Foresight Eye Center","source":"OpenGovernmentData","id":"node/7048433639"},"geometry":{"type":"Point","coordinates":[72.8133863,18.956311]}},{"type":"Feature","id":"node/7048777736","properties":{"addr:district":"Mumbai","addr:full":"Modi Bhavan, Pandita Ramabai Road, Gamdevi, Grant Road (W)","addr:postcode":"400007","addr:state":"Maharashtra","amenity":"hospital","name":"Dr. Nisars Eye Care Centre","source":"OpenGovernmentData","id":"node/7048777736"},"geometry":{"type":"Point","coordinates":[72.8116697,18.9590608]}},{"type":"Feature","id":"node/7049124019","properties":{"addr:district":"Mumbai","addr:full":"12, Gyan Mandir Road, Dadar West Railway Station","addr:postcode":"400028","addr:state":"Maharashtra","amenity":"hospital","healthcare":"hospital","name":"Shree Vardhaman Sthanakvasi Jain Shravak Sangh Dadar Sanchalit Navneet Jain Health Centre","source":"OpenGovernmentData","id":"node/7049124019"},"geometry":{"type":"Point","coordinates":[72.8383778,19.0204668]}},{"type":"Feature","id":"node/7049356179","properties":{"addr:district":"Mumbai","addr:full":"Khan Mansion, Flat NO.1, Victoria Road, Byculla","addr:postcode":"400027","addr:state":"Maharashtra","amenity":"clinic","health_facility:type":"dispensary","healthcare":"centre","name":"CGHS Dispensary No.11, Byculla","operator:type":"government","source":"OpenGovernmentData","website":"http://nb.bsf.gov.in/CGHS%20DIspenseries.pdf","id":"node/7049356179"},"geometry":{"type":"Point","coordinates":[72.8357385,18.9762105]}},{"type":"Feature","id":"node/7049617511","properties":{"addr:district":"Mumbai","addr:full":"Bach By View, 2nd Floor, 3-A,Mama Parmanand Marg, Near Charni Road Station","addr:postcode":"400004","addr:state":"Maharashtra","amenity":"clinic","healthcare":"clinic","name":"Bay View Clinic","source":"OpenGovernmentData","id":"node/7049617511"},"geometry":{"type":"Point","coordinates":[72.817065,18.9534457]}},{"type":"Feature","id":"node/7049812966","properties":{"addr:district":"Mumbai","addr:full":"101, Inder Tower Gokhale Road (S), Near Tilak Bhavan, Opposite Ashishind Estate, Dadar (West)","addr:postcode":"400028","addr:state":"Maharashtra","amenity":"hospital","email":"punamiya.hospital@gmail.com","healthcare":"hospital","name":"Punamiya Hospital, Mumbai","operator:type":"private","source":"OpenGovernmentData","website":"http://punamiyahospital.in/","id":"node/7049812966"},"geometry":{"type":"Point","coordinates":[72.8343451,19.0124701]}},{"type":"Feature","id":"node/7050575276","properties":{"addr:district":"Mumbai","addr:full":"Aga Hall, Nesbit Road, Mazgaon","addr:postcode":"400010","addr:state":"Maharashtra","amenity":"hospital","emergency":"yes","healthcare":"hospital","healthcare:speciality":"general;gynaecology","name":"Prince Aly Khan Hospital","name:mr":"प्रिंस अली खान हॉस्पिटल","source":"OpenGovernmentData","id":"node/7050575276"},"geometry":{"type":"Point","coordinates":[72.8366089,18.9707774]}},{"type":"Feature","id":"node/7051069996","properties":{"addr:district":"Mumbai","addr:full":"Vidya Bhuvan 121, Shivaji Park, Opp Shiv Sena Bhavan Dadar - West","addr:postcode":"400028","addr:state":"Maharashtra","amenity":"hospital","healthcare":"hospital","name":"Dr Thakur Hospital","source":"OpenGovernmentData","id":"node/7051069996"},"geometry":{"type":"Point","coordinates":[72.8400777,19.0250711]}},{"type":"Feature","id":"node/7051070010","properties":{"addr:district":"Mumbai","addr:full":"3Road Floor, Sadhana House Behind Mahindra Towers, Pandurang Budhkar Marg, Worli Mumbai","addr:postcode":"400018","addr:state":"Maharashtra","amenity":"hospital","name":"Reliance Life Sciences Pvt. Ltd","source":"OpenGovernmentData","id":"node/7051070010"},"geometry":{"type":"Point","coordinates":[72.8225555,19.0050283]}},{"type":"Feature","id":"node/7051819363","properties":{"addr:district":"Mumbai","addr:full":"1 Trimurti, Ground Floor, 64, Shivaji Parak, Keluskar Road (S), Dadar","addr:postcode":"400028","addr:state":"Maharashtra","amenity":"clinic","healthcare":"clinic","name":"Dnyan Geeta Nursing Home","source":"OpenGovernmentData","id":"node/7051819363"},"geometry":{"type":"Point","coordinates":[72.8390001,19.0254254]}},{"type":"Feature","id":"node/7052083192","properties":{"addr:district":"Mumbai","addr:full":"1, Ram Mansion, C H S Ground Floor, S K Bole Road, Near Sidhi Vinayak Mandir, Dadar","addr:postcode":"400028","addr:state":"Maharashtra","amenity":"clinic","healthcare":"clinic","name":"Shri Siddhivinayak Nursing Home","source":"OpenGovernmentData","id":"node/7052083192"},"geometry":{"type":"Point","coordinates":[72.8309119,19.0171538]}},{"type":"Feature","id":"node/7052365607","properties":{"addr:district":"Mumbai","addr:full":"9,Dr, D.D. Sathe Marg","addr:postcode":"400004","addr:state":"Maharashtra","amenity":"hospital","healthcare":"hospital","healthcare:speciality":"general;gynaecology","name":"Brahman Sabha, Mhaskar Gruh and General Nursing Home","phone":"+91 22 23871999","source":"OpenGovernmentData","id":"node/7052365607"},"geometry":{"type":"Point","coordinates":[72.8190404,18.9568031]}},{"type":"Feature","id":"node/7052388277","properties":{"addr:district":"Mumbai","addr:full":"Dr.E Borges Road, Parel","addr:postcode":"400012","addr:state":"Maharashtra","amenity":"hospital","email":"info@tmcmail.org; tmcit1@vsnl.com","name":"Tata Memorial Hospital","operator:type":"private","source":"OpenGovernmentData","website":"www.tmc.gov.in","id":"node/7052388277"},"geometry":{"type":"Point","coordinates":[72.8432125,19.004984]}},{"type":"Feature","id":"node/7052771941","properties":{"addr:district":"Mumbai","addr:full":"6, Kailas Darshan, 2nd Floor,Nana Chowk, Kennedy Bridge, Marine Lines","addr:postcode":"400007","addr:state":"Maharashtra","amenity":"clinic","healthcare":"clinic","name":"Dr. Gala's Nursing Home","source":"OpenGovernmentData","id":"node/7052771941"},"geometry":{"type":"Point","coordinates":[72.81344,18.9610166]}},{"type":"Feature","id":"node/7052963441","properties":{"addr:district":"Mumbai","addr:full":"Manoj Co-Op,Hsg,Society,Shankar Ghanekar Marg.Prabhedevi","addr:postcode":"400025","addr:state":"Maharashtra","amenity":"hospital","healthcare":"hospital","healthcare:speciality":"maternity;pathology","name":"Dr.Palep's Priyank Maternity Nursing Home","source":"OpenGovernmentData","id":"node/7052963441"},"geometry":{"type":"Point","coordinates":[72.8318681,19.0146877]}},{"type":"Feature","id":"node/7053245833","properties":{"addr:district":"Mumbai","addr:full":"Shilpa Appts, 1st Floor, Shankar Ghanekar Marg, Off Gokhle Road (S)","addr:postcode":"400028","addr:state":"Maharashtra","amenity":"hospital","healthcare":"hospital","healthcare:speciality":"general","name":"Dev Nursing Home","source":"OpenGovernmentData","id":"node/7053245833"},"geometry":{"type":"Point","coordinates":[72.8335994,19.0154396]}},{"type":"Feature","id":"node/7053247772","properties":{"addr:district":"Mumbai","addr:full":"225/A, Shreekrishna Bhavan, Behind Ruia Collage, Sir Bhakhadra Road,Matuya","addr:postcode":"400014","addr:state":"Maharashtra","amenity":"clinic","healthcare":"clinic","name":"Insight Eye Clinic","source":"OpenGovernmentData","id":"node/7053247772"},"geometry":{"type":"Point","coordinates":[72.8499609,19.0221746]}},{"type":"Feature","id":"node/7053265680","properties":{"addr:district":"Mumbai","addr:full":"15, First Floor, Vincent Court, Near Fire Brigade, Opposite Chitra Cinema, Dr.B.Ambedkar Road, Dadar (East)","addr:postcode":"400014","addr:state":"Maharashtra","amenity":"hospital","email":"info@daycaresurgery.com","name":"Suprabha Surgicare","operator:type":"private","source":"OpenGovernmentData","website":"http://www.daycaresurgery.com/","id":"node/7053265680"},"geometry":{"type":"Point","coordinates":[72.8451061,19.0136391]}},{"type":"Feature","id":"node/7053344161","properties":{"addr:district":"Mumbai","addr:full":"Mohan Nivas, Keluskar Road, Opposite Masaheb Thakre Statue, Shivaji Park, Dadar (W)","addr:postcode":"400028","addr:state":"Maharashtra","amenity":"clinic","healthcare":"clinic","name":"Ashvini Nursing and Maternity Home","source":"OpenGovernmentData","id":"node/7053344161"},"geometry":{"type":"Point","coordinates":[72.8397095,19.0259934]}},{"type":"Feature","id":"node/7053353247","properties":{"addr:district":"Mumbai","addr:full":"Ground Floor, 74, Anant Niwas, Keluskar Road, Near Shivaji Ground, Shivaji Park, Dadar West","addr:postcode":"400028","addr:state":"Maharashtra","amenity":"clinic","healthcare":"clinic","name":"Dr.Patkars Surgical Nursing Home","source":"OpenGovernmentData","id":"node/7053353247"},"geometry":{"type":"Point","coordinates":[72.8376254,19.0253012]}},{"type":"Feature","id":"node/7053355770","properties":{"addr:district":"Mumbai","addr:full":"Udyam, Ranade Road Shivaji Park","addr:postcode":"400028","addr:state":"Maharashtra","amenity":"hospital","healthcare":"hospital","name":"Well Spring Dr Avinash Phadke Pathlab Clinic","source":"OpenGovernmentData","id":"node/7053355770"},"geometry":{"type":"Point","coordinates":[72.8380385,19.0241779]}},{"type":"Feature","id":"node/7053882288","properties":{"addr:district":"Mumbai","addr:full":"Avani 2nd Floor Senapati Bapat Marg Dadar(W)","addr:postcode":"400028","addr:state":"Maharashtra","amenity":"clinic","name":"Nerkar Surgical Clinic","source":"OpenGovernmentData","id":"node/7053882288"},"geometry":{"type":"Point","coordinates":[72.8411237,19.0175906]}},{"type":"Feature","id":"node/7054423656","properties":{"addr:district":"Mumbai","addr:full":"Between Cross Roads Shopping Centre And Tardeo A/C Market, 50, Tardeo Road","addr:postcode":"400034","addr:state":"Maharashtra","amenity":"hospital","name":"Shetty Nursing Home (Shetty Health Services Pvt. Ltd.)","source":"OpenGovernmentData","id":"node/7054423656"},"geometry":{"type":"Point","coordinates":[72.8128391,18.9747946]}},{"type":"Feature","id":"node/7054447906","properties":{"addr:city":"Mumbai","addr:district":"Mumbai","addr:full":"58,Mohammedali Road","addr:postcode":"400003","addr:state":"Maharashtra","addr:street":"Muhammad Ali Road","amenity":"hospital","healthcare":"hospital","healthcare:speciality":"gynaecology","name":"Dholkawalla Maternity Home","source":"OpenGovernmentData","id":"node/7054447906"},"geometry":{"type":"Point","coordinates":[72.8337845,18.9527132]}},{"type":"Feature","id":"node/7054526793","properties":{"addr:district":"Mumbai","addr:full":"1st Fl., Shayog Society, L.J. Road, Next To City Light Cinema, Mahim","addr:postcode":"400016","addr:state":"Maharashtra","amenity":"hospital","healthcare":"hospital","name":"Surlata Hospital","source":"OpenGovernmentData","id":"node/7054526793"},"geometry":{"type":"Point","coordinates":[72.8416521,19.0307218]}},{"type":"Feature","id":"node/7055056491","properties":{"addr:district":"Mumbai","addr:full":"185/B,Lady Jamshedji Road, Mahim","addr:postcode":"400016","addr:state":"Maharashtra","amenity":"clinic","healthcare":"clinic","name":"North Bombay Clinic Surgical and Maternity Home","source":"OpenGovernmentData","id":"node/7055056491"},"geometry":{"type":"Point","coordinates":[72.8421195,19.0303167]}},{"type":"Feature","id":"node/7055376041","properties":{"addr:district":"Mumbai","addr:full":"204, Arun Chambers, Next To Ac Market, Tardeo","addr:postcode":"400034","addr:state":"Maharashtra","amenity":"clinic","name":"Aus Clinic and Lithotripsy Center","source":"OpenGovernmentData","id":"node/7055376041"},"geometry":{"type":"Point","coordinates":[72.813963,18.9731718]}},{"type":"Feature","id":"node/7055428168","properties":{"addr:district":"Mumbai","addr:full":"Mahaprabhu Krupa, 1st Floor, Room No.5, Near Alankar Cinema, Girgaum -Charni Road","addr:postcode":"400004","addr:state":"Maharashtra","amenity":"hospital","name":"Yogeshwar Surgical Clinic and Nursing Home - Mumbai","source":"OpenGovernmentData","id":"node/7055428168"},"geometry":{"type":"Point","coordinates":[72.8248367,18.957344]}},{"type":"Feature","id":"node/7055432245","properties":{"addr:district":"Mumbai","addr:full":"534, Bombay Mutual Terrace, 4Th Floor, Opera House","addr:postcode":"400007","addr:state":"Maharashtra","amenity":"clinic","healthcare":"clinic","name":"Palshetkar Patil Nursing Home","source":"OpenGovernmentData","id":"node/7055432245"},"geometry":{"type":"Point","coordinates":[72.8142688,18.9565951]}},{"type":"Feature","id":"node/7055759633","properties":{"addr:district":"Mumbai","addr:full":"Mumbai","addr:postcode":"400008","addr:state":"Maharashtra","amenity":"hospital","check_date":"2026-03-20","healthcare":"hospital","name":"Ipc Heart Care","source":"OpenGovernmentData","id":"node/7055759633"},"geometry":{"type":"Point","coordinates":[72.8243351,18.9925482]}},{"type":"Feature","id":"node/7059192086","properties":{"addr:district":"Mumbai","addr:full":"Imamwada Road, Opposite Mughal Masjid","addr:postcode":"400009","addr:state":"Maharashtra","amenity":"hospital","emergency":"yes","healthcare":"hospital","healthcare:speciality":"gynaecology;general","name":"M.H. Saboo Siddique Maternity and General Hospital - Masjid","source":"OpenGovernmentData","id":"node/7059192086"},"geometry":{"type":"Point","coordinates":[72.8331207,18.9595979]}},{"type":"Feature","id":"node/7062497112","properties":{"addr:district":"Mumbai","addr:full":"128, Hindu Colony, 5Th Lane, Dadar(East)","addr:postcode":"400014","addr:state":"Maharashtra","amenity":"clinic","check_date":"2026-03-20","healthcare":"clinic","name":"Shree Samarth Nursing Home","source":"OpenGovernmentData","id":"node/7062497112"},"geometry":{"type":"Point","coordinates":[72.8474218,19.0212229]}},{"type":"Feature","id":"node/7063077063","properties":{"addr:district":"Mumbai","addr:full":"Above Prabhat Bazar, 26, Kapad Bazar, Mahim","addr:postcode":"400016","addr:state":"Maharashtra","amenity":"hospital","healthcare":"hospital","name":"Dr Haresh Shah Prabhat Maternity and Surgical Nursing Home","source":"OpenGovernmentData","id":"node/7063077063"},"geometry":{"type":"Point","coordinates":[72.8397457,19.0373922]}},{"type":"Feature","id":"node/7063805561","properties":{"addr:district":"Mumbai","addr:full":"Plot No.16 Next To Citylight Cinema, L J Road , Mahim","addr:postcode":"400016","addr:state":"Maharashtra","amenity":"clinic","healthcare":"clinic","name":"Dr. Mathure's Surgical Clinic","source":"OpenGovernmentData","id":"node/7063805561"},"geometry":{"type":"Point","coordinates":[72.8417493,19.0307642]}},{"type":"Feature","id":"node/7064364272","properties":{"addr:district":"Mumbai","addr:full":"Pupala Sadan","addr:postcode":"400030","addr:state":"Maharashtra","amenity":"hospital","name":"Worli Hospital For Women","source":"OpenGovernmentData","id":"node/7064364272"},"geometry":{"type":"Point","coordinates":[72.8225863,19.0128124]}},{"type":"Feature","id":"node/7064774671","properties":{"addr:district":"Mumbai","addr:full":"13, Rameshwar, 1st Floor, Opposite Citylight Cinema, 206, K.J. Road, Mahim","addr:postcode":"400016","addr:state":"Maharashtra","amenity":"clinic","healthcare":"clinic","name":"Nadkarni Clinic","source":"OpenGovernmentData","id":"node/7064774671"},"geometry":{"type":"Point","coordinates":[72.8425553,19.0313246]}},{"type":"Feature","id":"node/7064867159","properties":{"addr:district":"Mumbai","addr:full":"58-60 Jehangir Merwanji Street Parel","addr:postcode":"400012","addr:state":"Maharashtra","amenity":"hospital","name":"K B Haji Bachooali Charitable Ophthalmic and E N T H","source":"OpenGovernmentData","id":"node/7064867159"},"geometry":{"type":"Point","coordinates":[72.8402299,19.0030769]}},{"type":"Feature","id":"node/7065820603","properties":{"addr:district":"Mumbai","addr:full":"Gokul 1st Floor Near Senapati Bapat Statue 93 Ranade Road Dadar","addr:postcode":"400014","addr:state":"Maharashtra","amenity":"clinic","healthcare":"clinic","name":"Nirmal Nursing Home, Mumbai","source":"OpenGovernmentData","id":"node/7065820603"},"geometry":{"type":"Point","coordinates":[72.8369227,19.0250514]}},{"type":"Feature","id":"node/7065829191","properties":{"addr:district":"Mumbai","addr:full":"Continental Bldg, Opp, Glaxo","addr:postcode":"400018","addr:state":"Maharashtra","amenity":"clinic","name":"Bosco Nursing Home and Ent Research Centre","source":"OpenGovernmentData","id":"node/7065829191"},"geometry":{"type":"Point","coordinates":[72.8184825,19.006096]}},{"type":"Feature","id":"node/7066371677","properties":{"addr:district":"Mumbai","addr:full":"96/97, Jerbai Wadia Road, Near Tata Hospital, Opp Vicco House, Bhoiwada, Parel","addr:postcode":"400012","addr:state":"Maharashtra","amenity":"hospital","name":"Parel Institute Of Orthopaedic Specialities","source":"OpenGovernmentData","id":"node/7066371677"},"geometry":{"type":"Point","coordinates":[72.8449465,19.0056262]}},{"type":"Feature","id":"node/7066374693","properties":{"addr:district":"Mumbai","addr:full":"Paresh, 4-A Bhulabhai Desai Road","addr:postcode":"400026","addr:state":"Maharashtra","amenity":"clinic","name":"Voras Nursing Home","source":"OpenGovernmentData","id":"node/7066374693"},"geometry":{"type":"Point","coordinates":[72.8100577,18.9777793]}},{"type":"Feature","id":"node/7066505690","properties":{"addr:district":"Mumbai","addr:full":"104, Ramgiri Heights, Mtnl Marg, Dadari (W)","addr:postcode":"400028","addr:state":"Maharashtra","amenity":"hospital","healthcare":"hospital","name":"Ashtavinayak Maternity Surgical and Eye Hospital","source":"OpenGovernmentData","id":"node/7066505690"},"geometry":{"type":"Point","coordinates":[72.8339642,19.0202665]}},{"type":"Feature","id":"node/7066505700","properties":{"addr:district":"Mumbai","addr:full":"Apex centre, 5 Babulnath Road, OppositeBabulnath Temple, Grant Road","addr:postcode":"400007","addr:state":"Maharashtra","amenity":"hospital","email":"Contact@EyeCareForAll.in","name":"Bombay City Eye Institute and Research Centre","operator:type":"private","source":"OpenGovernmentData","website":"http://www.eyecareforall.in/eyecareforall/index.html","id":"node/7066505700"},"geometry":{"type":"Point","coordinates":[72.8095293,18.9580372]}},{"type":"Feature","id":"node/7066505743","properties":{"addr:district":"Mumbai","addr:full":"Savitri Sadan, 168-A, Dr. Ambedkar Road","addr:postcode":"400014","addr:state":"Maharashtra","amenity":"hospital","name":"Asmi Arthroscopy and Sports Medicine Institute","source":"OpenGovernmentData","id":"node/7066505743"},"geometry":{"type":"Point","coordinates":[72.8485903,19.0051336]}},{"type":"Feature","id":"node/7066505744","properties":{"addr:district":"Mumbai","addr:full":"139 Unity Frd Floor Road No 5 Shivaji Park","addr:postcode":"400016","addr:state":"Maharashtra","amenity":"clinic","healthcare":"clinic","name":"Rajvi Clinic","source":"OpenGovernmentData","id":"node/7066505744"},"geometry":{"type":"Point","coordinates":[72.8420055,19.0283567]}},{"type":"Feature","id":"node/7066505804","properties":{"addr:district":"Mumbai","addr:full":"266 , Patel Bldg Opposite Central Cinema Girgaum","addr:postcode":"400004","addr:state":"Maharashtra","amenity":"hospital","healthcare":"hospital","name":"Beramjis Hospital","source":"OpenGovernmentData","id":"node/7066505804"},"geometry":{"type":"Point","coordinates":[72.8182693,18.9547128]}},{"type":"Feature","id":"node/7066695543","properties":{"addr:district":"Mumbai","addr:full":"Shilpa Apartment Dasturwadi Dadar E Mumbai","addr:postcode":"400014","addr:state":"Maharashtra","amenity":"hospital","check_date":"2026-03-20","healthcare":"hospital","name":"G S B S Medical Trust","source":"OpenGovernmentData","id":"node/7066695543"},"geometry":{"type":"Point","coordinates":[72.8451866,19.015612]}},{"type":"Feature","id":"node/7066865609","properties":{"addr:district":"Mumbai","addr:full":"Rajdeep, 143, Lt. Dilip Gupte Road, Mahim","addr:postcode":"400016","addr:state":"Maharashtra","amenity":"hospital","healthcare":"hospital","name":"Gupte Maternity and Surgical Home","source":"OpenGovernmentData","id":"node/7066865609"},"geometry":{"type":"Point","coordinates":[72.8401695,19.0346836]}},{"type":"Feature","id":"node/7068194935","properties":{"addr:district":"Mumbai","addr:full":"Goola Mansion, Jam-E-Jamshed Road, Near Five Gardens","addr:postcode":"400019","addr:state":"Maharashtra","amenity":"clinic","healthcare":"clinic","name":"Narvekar Clinics","source":"OpenGovernmentData","id":"node/7068194935"},"geometry":{"type":"Point","coordinates":[72.8141896,18.9565215]}},{"type":"Feature","id":"node/7068218589","properties":{"addr:district":"Mumbai","addr:full":"2, Anand Sagar, Mogal Lane Matunga Bombay","addr:postcode":"400016","addr:state":"Maharashtra","amenity":"clinic","healthcare":"clinic","name":"Shree Saraswati Nursing Home","source":"OpenGovernmentData","id":"node/7068218589"},"geometry":{"type":"Point","coordinates":[72.8452831,19.0304967]}},{"type":"Feature","id":"node/7069814001","properties":{"addr:city":"Mumbai","addr:district":"Mumbai","addr:full":"245-A, Maulana Azad Road , Nagpada","addr:housenumber":"247","addr:postcode":"400008","addr:state":"Maharashtra","addr:street":"Maulana Azad Road North","amenity":"hospital","healthcare":"hospital","name":"Nagori Clinic and Nursing Home","source":"OpenGovernmentData","id":"node/7069814001"},"geometry":{"type":"Point","coordinates":[72.8286038,18.9685072]}},{"type":"Feature","id":"node/7069814052","properties":{"addr:district":"Mumbai","addr:full":"93/95, August Kranti Marg, August Kranti Maidan","addr:postcode":"400036","addr:state":"Maharashtra","amenity":"hospital","email":"support@cumbalahillhospital.com","healthcare":"hospital","name":"Cumbala Hill Hospital and Heart Institute","operator:type":"private","source":"OpenGovernmentData","website":"www.chh.co.in/","id":"node/7069814052"},"geometry":{"type":"Point","coordinates":[72.8087763,18.9634974]}},{"type":"Feature","id":"node/7070054643","properties":{"addr:district":"Mumbai","addr:full":"Queystreet, OppositeSaibabamandir, Reayroad(E)","addr:postcode":"400010","addr:state":"Maharashtra","amenity":"hospital","name":"Sai Raj Hospital","source":"OpenGovernmentData","id":"node/7070054643"},"geometry":{"type":"Point","coordinates":[72.8485957,18.9772251]}},{"type":"Feature","id":"node/7070711758","properties":{"addr:district":"Mumbai","addr:full":"Anil Apartment Ist Floor College Street Behind Prabhadevi Teleophone Exchange Agar Bazar Dadar","addr:postcode":"400028","addr:state":"Maharashtra","amenity":"hospital","healthcare":"hospital","name":"Shreedhar Hospital","source":"OpenGovernmentData","id":"node/7070711758"},"geometry":{"type":"Point","coordinates":[72.8337321,19.0196086]}},{"type":"Feature","id":"node/7070857459","properties":{"addr:district":"Mumbai","addr:full":"Bldg. No.2, 1st Floor, R.No. 4, 5 & 10, Navjivan Society, Lamington Road","addr:postcode":"400008","addr:state":"Maharashtra","amenity":"hospital","check_date":"2026-03-20","healthcare":"hospital","name":"Sadhu-Kamal Eye Hospital","source":"OpenGovernmentData","id":"node/7070857459"},"geometry":{"type":"Point","coordinates":[72.8195715,18.9661811]}},{"type":"Feature","id":"node/7072544674","properties":{"addr:district":"Mumbai","addr:full":"Mangal Murti Cooperative Housing Society, Off. S.K. Bole Road, Near Raheja Princess, Agar Bazar, Dadar West","addr:postcode":"400028","addr:state":"Maharashtra","amenity":"clinic","email":"info@drgandhi.org","healthcare":"clinic","name":"Dr. Gandhi's Nusing Home","source":"OpenGovernmentData","website":"https://www.drgandhi.org/","id":"node/7072544674"},"geometry":{"type":"Point","coordinates":[72.8332186,19.0178347]}},{"type":"Feature","id":"node/7073672865","properties":{"addr:district":"Mumbai","addr:full":"V.P.Road","addr:postcode":"400004","addr:state":"Maharashtra","amenity":"hospital","name":"Dr.Pai Dhungat Maternity and Nursing Home","source":"OpenGovernmentData","id":"node/7073672865"},"geometry":{"type":"Point","coordinates":[72.8229122,18.9571912]}},{"type":"Feature","id":"node/7073895608","properties":{"addr:district":"Mumbai","addr:full":"Jain Sthanak Chawl, Dr Baba Saheb Ambedkar Rd, Chinchpokali (East)","addr:postcode":"400012","addr:state":"Maharashtra","amenity":"clinic","name":"N S Optical Contact Lens Clinic Ghatkopar","source":"OpenGovernmentData","id":"node/7073895608"},"geometry":{"type":"Point","coordinates":[72.8354555,18.9869495]}},{"type":"Feature","id":"node/7073949849","properties":{"addr:district":"Mumbai","addr:full":"202-A, Sukh Sagar,2nd Floor, N S Patkar Marg","addr:postcode":"400007","addr:state":"Maharashtra","amenity":"hospital","healthcare":"hospital","name":"Samyak Drishti Eye Centre","source":"OpenGovernmentData","id":"node/7073949849"},"geometry":{"type":"Point","coordinates":[72.8133488,18.9563909]}},{"type":"Feature","id":"node/7074541583","properties":{"addr:district":"Mumbai","addr:full":"Yashashree Society N M Joshi Marg Opp Zee News Bldg Lower Parel","addr:postcode":"400011","addr:state":"Maharashtra","amenity":"hospital","name":"Sankalp Eye Care Centre","source":"OpenGovernmentData","id":"node/7074541583"},"geometry":{"type":"Point","coordinates":[72.8313598,18.9893399]}},{"type":"Feature","id":"node/7079411421","properties":{"addr:district":"Mumbai","addr:full":"Shreyas, 120, Hindu Colony, 5Th Road, Dadar","addr:postcode":"400014","addr:state":"Maharashtra","amenity":"clinic","check_date":"2026-03-20","name":"Shrikhande Clinic, Mumbai","source":"OpenGovernmentData","website":"https://www.shrikhandeclinic.org/","id":"node/7079411421"},"geometry":{"type":"Point","coordinates":[72.8478111,19.0205873]}},{"type":"Feature","id":"node/7080141269","properties":{"addr:district":"Latur","addr:full":"122, Dr Maheshwari Rd, Dongri, Umerkhadi","addr:postcode":"400009","addr:state":"Maharashtra","amenity":"hospital","name":"Smt.Laxmiben Dhanji Devshi Health Centre","source":"OpenGovernmentData","id":"node/7080141269"},"geometry":{"type":"Point","coordinates":[72.8383537,18.9592421]}},{"type":"Feature","id":"node/7080205222","properties":{"addr:district":"Mumbai","addr:full":"Mumbai","addr:postcode":"400026","addr:state":"Maharashtra","amenity":"hospital","healthcare":"hospital","name":"Gynaecworld","source":"OpenGovernmentData","id":"node/7080205222"},"geometry":{"type":"Point","coordinates":[72.8078722,18.9639954]}},{"type":"Feature","id":"node/7080269652","properties":{"addr:district":"Mumbai","addr:full":"Ganesh Apt. Ground Floor, L. J. Road, Opposite Sitladevi Temple, Mahim","addr:postcode":"400014","addr:state":"Maharashtra","amenity":"hospital","healthcare":"hospital","name":"Ashwini Accident Hospital and Poly Clinic","source":"OpenGovernmentData","id":"node/7080269652"},"geometry":{"type":"Point","coordinates":[72.8427344,19.0363697]}},{"type":"Feature","id":"node/7081227364","properties":{"addr:district":"Mumbai","addr:full":"B-104,105 Prithvi Vandan N M Joshi Marg N M Joshi Marg","addr:postcode":"400013","addr:state":"Maharashtra","amenity":"clinic","check_date":"2026-03-20","name":"Harish Nursing Home","source":"OpenGovernmentData","id":"node/7081227364"},"geometry":{"type":"Point","coordinates":[72.8312646,18.9917087]}},{"type":"Feature","id":"node/7082370197","properties":{"addr:district":"Mumbai","addr:full":"10/86 Dadasaheb Phalka Road Dadar","addr:postcode":"400014","addr:state":"Maharashtra","amenity":"clinic","check_date":"2026-03-20","name":"Dr. Mahaveer Jangada Clinic, Dadar","source":"OpenGovernmentData","id":"node/7082370197"},"geometry":{"type":"Point","coordinates":[72.842719,19.0149831]}},{"type":"Feature","id":"node/7082370227","properties":{"addr:district":"Mumbai","addr:full":"25-C, Sea Race, Opposite Flora Hotel, Thadani Marg, Worli","addr:postcode":"400030","addr:state":"Maharashtra","amenity":"clinic","health_facility:type":"dispensary","healthcare":"centre","name":"CGHS Dispensary No.3, Worli","operator:type":"government","source":"OpenGovernmentData","website":"http://nb.bsf.gov.in/CGHS%20DIspenseries.pdf","id":"node/7082370227"},"geometry":{"type":"Point","coordinates":[72.8139858,19.0033596]}},{"type":"Feature","id":"node/7082733172","properties":{"addr:district":"Mumbai","addr:full":"47-A, Walchand Terraces, Opp Tardeo A/C Market, Tardeo","addr:postcode":"400034","addr:state":"Maharashtra","amenity":"hospital","name":"Anudhiti Care","source":"OpenGovernmentData","id":"node/7082733172"},"geometry":{"type":"Point","coordinates":[72.8145584,18.9734559]}},{"type":"Feature","id":"node/7085383681","properties":{"addr:district":"Mumbai","addr:full":"Vidya Building, Kotnis Path, Near Hinduja Hospital, Mahim","addr:postcode":"400016","addr:state":"Maharashtra","amenity":"clinic","healthcare":"clinic","name":"Laxmi Clinic","source":"OpenGovernmentData","id":"node/7085383681"},"geometry":{"type":"Point","coordinates":[72.8392519,19.033418]}},{"type":"Feature","id":"node/7085878723","properties":{"addr:district":"Mumbai","addr:full":"No.506, 5th Floor, Doctor House, Opp Jaslok Hospital, Pedder Rd, Cumballa, Hill","addr:postcode":"400026","addr:state":"Maharashtra","amenity":"clinic","name":"Dr Satish wadhwa","source":"OpenGovernmentData","id":"node/7085878723"},"geometry":{"type":"Point","coordinates":[72.8092001,18.9720742]}},{"type":"Feature","id":"node/7086283490","properties":{"addr:district":"Mumbai","addr:full":"14,Ground Floor Muljee House,Veer Savarkar Marg,Prabhadevi","addr:postcode":"400025","addr:state":"Maharashtra","amenity":"hospital","healthcare":"hospital","name":"Varad Medical Centre","source":"OpenGovernmentData","id":"node/7086283490"},"geometry":{"type":"Point","coordinates":[72.8274786,19.0146877]}},{"type":"Feature","id":"node/7086409774","properties":{"addr:district":"Mumbai","addr:full":"153-B Dongre Building Hindu Colony Opp Ruia College Matunga (Cr)","addr:postcode":"400019","addr:state":"Maharashtra","amenity":"hospital","check_date":"2026-03-20","name":"Icon The Eye Consultants Eye and Laser Centre","source":"OpenGovernmentData","id":"node/7086409774"},"geometry":{"type":"Point","coordinates":[72.8498315,19.0230349]}},{"type":"Feature","id":"node/7086516381","properties":{"addr:district":"Mumbai","addr:full":"395-A G.K. Marg, Worli","addr:postcode":"400018","addr:state":"Maharashtra","amenity":"clinic","name":"Nirmal Clinic","source":"OpenGovernmentData","id":"node/7086516381"},"geometry":{"type":"Point","coordinates":[72.8186139,18.9980415]}},{"type":"Feature","id":"node/7086734179","properties":{"addr:district":"Mumbai","addr:full":"6,Jaymahal,French Bridge,Opera House, Next To Patidar Samaj Hall","addr:postcode":"400007","addr:state":"Maharashtra","amenity":"hospital","name":"Infiniti Eye Hospital","source":"OpenGovernmentData","id":"node/7086734179"},"geometry":{"type":"Point","coordinates":[72.8116241,18.9654379]}},{"type":"Feature","id":"node/7086786149","properties":{"addr:district":"Mumbai","addr:full":"Mumbai","addr:postcode":"400001","addr:state":"Maharashtra","amenity":"clinic","healthcare":"clinic","name":"Dr Kiran Katar Clinic","source":"OpenGovernmentData","id":"node/7086786149"},"geometry":{"type":"Point","coordinates":[72.8378642,19.0238089]}},{"type":"Feature","id":"node/7087131446","properties":{"addr:district":"Mumbai","addr:full":"Flat No-01,Shankar Niwas,Plot No-117,Shivaji Park Lane No-03,Opp Sena Bhawan,Shiva Ji Park","addr:postcode":"400028","addr:state":"Maharashtra","amenity":"clinic","healthcare":"clinic","name":"Deccan Fertility Clinic and Keyhole Surgery Center","source":"OpenGovernmentData","id":"node/7087131446"},"geometry":{"type":"Point","coordinates":[72.83957,19.0249236]}},{"type":"Feature","id":"node/7087636854","properties":{"addr:district":"Mumbai","addr:full":"180, Saraswati Nilayam , 180 , Hindu Colony , Dadar ( East )","addr:postcode":"400014","addr:state":"Maharashtra","amenity":"clinic","check_date":"2026-03-20","name":"Laud Clinic","source":"OpenGovernmentData","id":"node/7087636854"},"geometry":{"type":"Point","coordinates":[72.8486473,19.0206094]}},{"type":"Feature","id":"node/7206288300","properties":{"addr:city":"Mumbai","addr:district":"Mumbai","addr:housenumber":"21/22","addr:postcode":"400008","addr:street":"Memni Buidling, Dimtimakar Road","amenity":"hospital","emergency":"yes","healthcare":"hospital","healthcare:speciality":"gynaecology;surgery;paediatrics;orthopaedics;general","name":"Dawood Multispeciality Nursing Home","opening_hours":"09:30-22:30, We off","operator":"sabusiddique","operator:type":"public","phone":"+91 22 23091413, +91 22 23051797","id":"node/7206288300"},"geometry":{"type":"Point","coordinates":[72.8289157,18.9666435]}},{"type":"Feature","id":"node/7206357770","properties":{"addr:city":"Mumbai","addr:postcode":"400008","addr:street":"B Virani Marg (Hazaria Street)","amenity":"clinic","healthcare":"clinic","healthcare:speciality":"general","name":"Municipality Clinic","id":"node/7206357770"},"geometry":{"type":"Point","coordinates":[72.8306024,18.9637556]}},{"type":"Feature","id":"node/7207893889","properties":{"addr:city":"Mumbai","addr:postcode":"400008","addr:street":"Duncan Road, Dalal Estate, Kamathipura","amenity":"hospital","facility:unani":"yes","healthcare":"clinic","healthcare:speciality":"general","name":"Tibbia Hospital","id":"node/7207893889"},"geometry":{"type":"Point","coordinates":[72.8284384,18.966675]}},{"type":"Feature","id":"node/7207893890","properties":{"addr:city":"Mumbai","addr:full":"49, Mohammed Ali Road near Masjid Bunder, Pydhonie, Mumbai 400003","addr:housenumber":"49","addr:postcode":"400003","addr:street":"Mohammed Ali Road","amenity":"hospital","healthcare":"hospital","healthcare:speciality":"general;gynaecology","name":"Noor Hospital","id":"node/7207893890"},"geometry":{"type":"Point","coordinates":[72.8334612,18.9538884]}},{"type":"Feature","id":"node/7225067144","properties":{"addr:district":"Mumbai","addr:full":"Near Nirmal Park Railway Quarters, Chinchpokli","addr:postcode":"400011","addr:state":"Maharashtra","amenity":"hospital","check_date":"2026-03-20","description":"Civil Hospital/General Hospital","name":"Kasturba Hospital","source":"OpenGovernmentData","id":"node/7225067144"},"geometry":{"type":"Point","coordinates":[72.830035,18.98419]}},{"type":"Feature","id":"node/7225067147","properties":{"addr:district":"Mumbai","addr:full":"13, Abhyudaya Nagar Rd, Jijamata Nagar, Dock Labour Colony, Abhyudaya Nagar","addr:postcode":"400033","addr:state":"Maharashtra","amenity":"clinic","description":"dispensaries","health_facility:type":"dispensary","healthcare":"centre","name":"Abhyudaya Nagar Dispensary","source":"OpenGovernmentData","id":"node/7225067147"},"geometry":{"type":"Point","coordinates":[72.8462289,18.9909227]}},{"type":"Feature","id":"node/7225067153","properties":{"addr:district":"Mumbai","addr:full":"BDD Chawls Worli, behind Poddar Hospital","addr:postcode":"400018","addr:state":"Maharashtra","amenity":"hospital","name":"ESIS Hospital WORLI","source":"OpenGovernmentData","id":"node/7225067153"},"geometry":{"type":"Point","coordinates":[72.816903,19.0017314]}},{"type":"Feature","id":"node/7225067192","properties":{"addr:district":"Mumbai","addr:full":"Dr Annie Besant Road, B Wing, BDD Chawls Worli","addr:postcode":"400018","addr:state":"Maharashtra","amenity":"hospital","name":"Poddar Hospital","source":"OpenGovernmentData","id":"node/7225067192"},"geometry":{"type":"Point","coordinates":[72.8162624,19.0022803]}},{"type":"Feature","id":"node/7225067213","properties":{"addr:district":"Mumbai","addr:full":"55, Dr Anandrao Nair Marg, Near Mumbai Central Railway Station, Mumbai","addr:postcode":"400008","addr:state":"Maharashtra","amenity":"hospital","description":"Medical Colleges Hospital","healthcare":"hospital","name":"Nair Hospital Dental College","source":"OpenGovernmentData","id":"node/7225067213"},"geometry":{"type":"Point","coordinates":[72.820968,18.971194]}},{"type":"Feature","id":"node/7225067284","properties":{"addr:district":"Mumbai","addr:full":"Dr. A. L. Nair Road, Mumbai","addr:postcode":"400008","addr:state":"Maharashtra","amenity":"hospital","check_date":"2026-03-20","description":"Medical Colleges Hospital","healthcare":"hospital","name":"BYL Nair hospital","source":"OpenGovernmentData","id":"node/7225067284"},"geometry":{"type":"Point","coordinates":[72.8219188,18.9742153]}},{"type":"Feature","id":"node/7226727393","properties":{"addr:district":"Mumbai","addr:full":"Janabai Madhavrao Rokade Municipal School Ground Floor, Masjid Bunder Katha Bazzar, Mumbai","addr:postcode":"400009","addr:state":"Maharashtra","amenity":"hospital","emergency":"yes","healthcare":"hospital","name":"General Hospital, Janabai Rokade","source":"OpenGovernmentData","id":"node/7226727393"},"geometry":{"type":"Point","coordinates":[72.838827,18.95168]}},{"type":"Feature","id":"node/7226727399","properties":{"addr:district":"Mumbai","addr:full":"Guarabai Municipal Dispensary Ground Floor, Mumbai Central East","addr:postcode":"400007","addr:state":"Maharashtra","amenity":"clinic","description":"Dispensaries","health_facility:type":"dispensary","healthcare":"centre","name":"Gaurabai Dispensary","source":"OpenGovernmentData","id":"node/7226727399"},"geometry":{"type":"Point","coordinates":[72.8279768,18.9656479]}},{"type":"Feature","id":"node/7433481437","properties":{"amenity":"hospital","emergency":"no","healthcare":"hospital","name":"The Muslim Ambulance Society Diagnostic Center","id":"node/7433481437"},"geometry":{"type":"Point","coordinates":[72.8340909,18.9540069]}},{"type":"Feature","id":"node/7433481438","properties":{"amenity":"hospital","healthcare":"hospital","healthcare:speciality":"general;paediatrics;gynaecology;orthopaedics","name":"Habib Hospital","phone":"+91-22-23788100","website":"http://habibhospital.com/","id":"node/7433481438"},"geometry":{"type":"Point","coordinates":[72.8368049,18.9596948]}},{"type":"Feature","id":"node/7433682214","properties":{"addr:district":"Mumbai City","addr:full":"Shreeram Rane Chowk, Police Colony, New Nagpada, Byculla, Mumbai","addr:postcode":"400008","addr:state":"Maharastra","amenity":"hospital","healthcare":"hospital","name":"Nagpada Police Hospital","name:mr":"नागपाडा पोलीस रुग्णालय","source":"Local Knowledge","id":"node/7433682214"},"geometry":{"type":"Point","coordinates":[72.831912,18.9660613]}},{"type":"Feature","id":"node/7433749757","properties":{"addr:postcode":"400010","amenity":"hospital","healthcare":"hospital","healthcare:speciality":"gynaecology","name":"Rajshree Maternity","name:mr":"राजश्री मैटरनिटी","id":"node/7433749757"},"geometry":{"type":"Point","coordinates":[72.8357505,18.9724219]}},{"type":"Feature","id":"node/7433829905","properties":{"amenity":"hospital","healthcare":"hospital","healthcare:speciality":"oncology","name":"Masina Cancer Center","id":"node/7433829905"},"geometry":{"type":"Point","coordinates":[72.8357371,18.9749545]}},{"type":"Feature","id":"node/7607557871","properties":{"addr:district":"Mumbai","addr:full":"MS Ali Road, Siddharth Nagar, Kamathipura, Mumbai","addr:postcode":"400008","addr:state":"Maharashtra","amenity":"hospital","healthcare":"hospital","name":"BMC Eye Hospital ,Kamathipura","source":"Local Knowledge","id":"node/7607557871"},"geometry":{"type":"Point","coordinates":[72.8265104,18.961983]}},{"type":"Feature","id":"node/7607886540","properties":{"addr:district":"Mumbai","addr:full":"Haji Ali, Keshavrao Khadye Marg","addr:postcode":"400034","addr:state":"Maharashtra","amenity":"hospital","name":"All India Institute of Physical Medicine and Rehabilitation","source":"Local Knowledge","id":"node/7607886540"},"geometry":{"type":"Point","coordinates":[72.8128747,18.9785849]}},{"type":"Feature","id":"node/7664032187","properties":{"addr:district":"Mumbai City","addr:full":"Khemraj Srikrishna Das Marg, Grant Road, Khetwadi, Girgaon, Mumbai","addr:postcode":"400004","addr:state":"Maharastra","amenity":"hospital","healthcare":"hospital","name":"Dr. Sanjay Shah Hospital","source":"Local Knowledge","id":"node/7664032187"},"geometry":{"type":"Point","coordinates":[72.823862,18.959185]}},{"type":"Feature","id":"node/7664032188","properties":{"addr:district":"Mumbai City","addr:full":"Zaobawadi Road, Marine Lines East, Thakurdwar, Kalbadevi, Mumbai","addr:postcode":"400002","addr:state":"Maharastra","amenity":"hospital","healthcare":"hospital","name":"Suryakant Wagal Maternity Hospital","source":"Local Knowledge","id":"node/7664032188"},"geometry":{"type":"Point","coordinates":[72.8236501,18.9513853]}},{"type":"Feature","id":"node/7664032190","properties":{"addr:district":"Mumbai City","addr:full":"10, Bomanji Petit Marg, Cumballa Hill, Mumbai","addr:postcode":"400026","addr:state":"Maharastra","amenity":"clinic","name":"Zarah Medical & Comestic Skin Clinic","source":"Local Knowledge","id":"node/7664032190"},"geometry":{"type":"Point","coordinates":[72.8053844,18.9670887]}},{"type":"Feature","id":"node/7664032192","properties":{"addr:district":"Mumbai City","addr:full":"R K Madani Building, Babasaheb Ambedkar Nagar, Mumbai","addr:postcode":"400028","addr:state":"Maharastra","amenity":"hospital","healthcare":"hospital","name":"Gorai Naka Nalasopara Zoya Hospital","source":"Local Knowledge","id":"node/7664032192"},"geometry":{"type":"Point","coordinates":[72.835058,19.012455]}},{"type":"Feature","id":"node/7664032196","properties":{"addr:district":"Mumbai City","addr:full":"20, Dr E Moses Road, Gandhi Nagar, Upper Worli, Lower Parel, Mumbai","addr:postcode":"400013","addr:state":"Maharastra","amenity":"hospital","check_date":"2026-03-20","name":"Anand Niketan Hospital","opening_hours":"24/7","source":"Local Knowledge","id":"node/7664032196"},"geometry":{"type":"Point","coordinates":[72.8230369,18.9887771]}},{"type":"Feature","id":"node/7664032197","properties":{"addr:district":"Mumbai City","addr:full":"Dadyseth Road, Opp Bombay Garage, Chowpatty, Mumbai","addr:postcode":"400007","addr:state":"Maharastra","amenity":"hospital","name":"Desa's Hospital","source":"Local Knowledge","id":"node/7664032197"},"geometry":{"type":"Point","coordinates":[72.807685,18.956001]}},{"type":"Feature","id":"node/7664032199","properties":{"addr:district":"Mumbai City","addr:full":"Geeta Smriti Building, B-42,44, Pandita Ramabai Marg, Gamdevi, Mumbai","addr:postcode":"400007","addr:state":"Maharastra","amenity":"clinic","name":"Ria Clinic","source":"Local Knowledge","id":"node/7664032199"},"geometry":{"type":"Point","coordinates":[72.8114136,18.9584181]}},{"type":"Feature","id":"node/7664032200","properties":{"addr:district":"Mumbai City","addr:full":"KM Munshi Road, Gamdevi, Mumbai","addr:postcode":"400007","addr:state":"Maharastra","amenity":"hospital","name":"Dolby Hospital","source":"Local Knowledge","id":"node/7664032200"},"geometry":{"type":"Point","coordinates":[72.8115973,18.9570962]}},{"type":"Feature","id":"node/7664032202","properties":{"addr:district":"Mumbai City","addr:full":"Rupal Apartment, 1st Floor, Dadasaheb Phalke Road, Dadar East, Mumbai","addr:postcode":"400014","addr:state":"Maharastra","amenity":"hospital","check_date":"2026-03-20","name":"Ashvini Nursing Home","source":"Local Knowledge","id":"node/7664032202"},"geometry":{"type":"Point","coordinates":[72.8424841,19.0146087]}},{"type":"Feature","id":"node/7664032203","properties":{"addr:district":"Mumbai City","addr:full":"37, St Mary Road, Tadwadi, Mazgaon, Mumbai","addr:postcode":"400010","addr:state":"Maharastra","amenity":"hospital","name":"Dr. Shantilal Oza Hospital","source":"Local Knowledge","id":"node/7664032203"},"geometry":{"type":"Point","coordinates":[72.838751,18.967509]}},{"type":"Feature","id":"node/7664032205","properties":{"addr:district":"Mumbai City","addr:full":"White Hall Building, Next to Shalimar Hotel, Kemps Corner, Mumbai","addr:postcode":"400036","addr:state":"Maharastra","amenity":"clinic","healthcare":"clinic","name":"Cheers Child Care Clinic","source":"Local Knowledge","id":"node/7664032205"},"geometry":{"type":"Point","coordinates":[72.805654,18.96436]}},{"type":"Feature","id":"node/7664032206","properties":{"addr:district":"Mumbai City","addr:full":"C/1, August Kranti Road, Cumballa Hill, Mumbai","addr:postcode":"400026","addr:state":"Maharastra","amenity":"clinic","healthcare":"clinic","name":"Dr. Nilen Shah's Clinic","source":"Local Knowledge","id":"node/7664032206"},"geometry":{"type":"Point","coordinates":[72.807013,18.9642646]}},{"type":"Feature","id":"node/7664032207","properties":{"addr:district":"Mumbai City","addr:full":"Ground Floor, Shiv Tapi Building, H.Goregaonkar Road, Gamdevi, Mumbai","addr:postcode":"400007","addr:state":"Maharastra","amenity":"clinic","healthcare":"clinic","name":"Cods Clinic","source":"Local Knowledge","id":"node/7664032207"},"geometry":{"type":"Point","coordinates":[72.8136684,18.9586366]}},{"type":"Feature","id":"node/7664032211","properties":{"addr:district":"Mumbai City","addr:full":"Elphinstone Bridge, Babasaheb Ambedkar Nagar, Parel, Mumbai","addr:postcode":"400012","addr:state":"Maharastra","amenity":"hospital","name":"Laxmi Niwas General Hospital","source":"Local Knowledge","id":"node/7664032211"},"geometry":{"type":"Point","coordinates":[72.835476,19.008175]}},{"type":"Feature","id":"node/7664032213","properties":{"addr:district":"Mumbai City","addr:full":"Sitladevi Temple Road, Mahim West, Mahim, Mumbai","addr:postcode":"400016","addr:state":"Maharastra","amenity":"hospital","healthcare":"hospital","name":"New Ratna Hospital","source":"Local Knowledge","id":"node/7664032213"},"geometry":{"type":"Point","coordinates":[72.8386025,19.0358599]}},{"type":"Feature","id":"node/7664032214","properties":{"addr:district":"Mumbai City","addr:full":"N S Patkar Marg, Opp Westside, Babulnath, Dadi Sheth Wadi, Gamdevi, Mumbai","addr:postcode":"400007","addr:state":"Maharastra","amenity":"hospital","name":"Smt. Motiben B. Dalvi Hospital","source":"Local Knowledge","id":"node/7664032214"},"geometry":{"type":"Point","coordinates":[72.8102818,18.9582867]}},{"type":"Feature","id":"node/7664032215","properties":{"addr:district":"Mumbai City","addr:full":"101, Inder Tower, Gokhale Road, Near Tilak Bhavan, Dadar West, Mumbai","addr:postcode":"400028","addr:state":"Maharastra","amenity":"hospital","healthcare":"hospital","name":"Punamiya Hospital","source":"Local Knowledge","id":"node/7664032215"},"geometry":{"type":"Point","coordinates":[72.833644,19.012145]}},{"type":"Feature","id":"node/7664032218","properties":{"addr:district":"Mumbai City","addr:full":"Digvijay Mill Building, Dattaram Lad Marg, Ghodapdeo, Byculla East, Mumbai","addr:postcode":"400033","addr:state":"Maharastra","amenity":"hospital","name":"Astha Nursing Home","source":"Local Knowledge","id":"node/7664032218"},"geometry":{"type":"Point","coordinates":[72.8376926,18.9881485]}},{"type":"Feature","id":"node/7664032219","properties":{"addr:district":"Mumbai City","addr:full":"Old Prabhadevi Road, G-South Ward, Dadar West, Prabhadevi, Mumbai","addr:postcode":"400025","addr:state":"Maharastra","amenity":"hospital","healthcare":"hospital","healthcare:speciality":"general","name":"BMC Hospital","source":"Local Knowledge","id":"node/7664032219"},"geometry":{"type":"Point","coordinates":[72.8261774,19.015443]}},{"type":"Feature","id":"node/7664032220","properties":{"addr:district":"Mumbai City","addr:full":"Rambha Bhavan, Near Babulnath Temple, Khareghat Colony, Malabar Hill, Mumbai","addr:postcode":"400007","addr:state":"Maharastra","amenity":"hospital","name":"Hospital For Women Care","source":"Local Knowledge","id":"node/7664032220"},"geometry":{"type":"Point","coordinates":[72.807333,18.957089]}},{"type":"Feature","id":"node/7664032222","properties":{"addr:district":"Mumbai City","addr:full":"Building No.1, Ground Floor, New Mahim Police Colony, Mahim, Mumbai","addr:postcode":"400016","addr:state":"Maharastra","amenity":"hospital","name":"Mahim Police Hospital","source":"Local Knowledge","id":"node/7664032222"},"geometry":{"type":"Point","coordinates":[72.84134,19.047153]}},{"type":"Feature","id":"node/7664032224","properties":{"addr:district":"Mumbai City","addr:full":"Welkarwadi BMC Building, LJ Cross Road, Opp.Darga Sarff, Mahim West, Mahim, Mumbai","addr:postcode":"400016","addr:state":"Maharastra","amenity":"hospital","healthcare":"hospital","name":"Welkarwadi BMC Hospital","source":"Local Knowledge","id":"node/7664032224"},"geometry":{"type":"Point","coordinates":[72.840027,19.03978]}},{"type":"Feature","id":"node/7664032225","properties":{"addr:district":"Mumbai City","addr:full":"Baig Mansion, Chowpatty Medical Centre 3, Babulnath Road, Mumbai","addr:postcode":"400007","addr:state":"Maharastra","amenity":"hospital","name":"Dr. Nadeem Rais Endocrinologist","source":"Local Knowledge","id":"node/7664032225"},"geometry":{"type":"Point","coordinates":[72.8084083,18.9559782]}},{"type":"Feature","id":"node/7664032231","properties":{"addr:district":"Mumbai City","addr:full":"Bobby Apartments, Near Mahim Bazar, P.O., Kapad Bazar, Mahim West, Mumbai","addr:postcode":"400016","addr:state":"Maharastra","amenity":"hospital","healthcare":"hospital","name":"Raj Ratan Hospital","source":"Local Knowledge","id":"node/7664032231"},"geometry":{"type":"Point","coordinates":[72.8400357,19.0363379]}},{"type":"Feature","id":"node/7664032237","properties":{"addr:district":"Mumbai City","addr:full":"43-A/43B, Dr Anandrao Nair Marg, RTO Colony, Mumbai Central, Mumbai","addr:postcode":"400008","addr:state":"Maharastra","amenity":"hospital","check_date":"2026-03-20","healthcare":"hospital","name":"Nair Hospital","source":"Local Knowledge","id":"node/7664032237"},"geometry":{"type":"Point","coordinates":[72.8219132,18.9730222]}},{"type":"Feature","id":"node/7664032244","properties":{"addr:district":"Mumbai City","addr:full":"31, Lower Parel East, BDD Chawl, Lower Parel, Mumbai","addr:postcode":"400013","addr:state":"Maharastra","amenity":"hospital","check_date":"2026-03-20","healthcare":"hospital","name":"Mhaskar Hospital","source":"Local Knowledge","id":"node/7664032244"},"geometry":{"type":"Point","coordinates":[72.8294352,18.9921984]}},{"type":"Feature","id":"node/7869383739","properties":{"addr:city":"Mumbai","addr:housenumber":"1, Parsi building, ground floor, Bawlawadi,opp. voltas house","addr:postcode":"400012","addr:street":"Dr Babasaheb Ambedkar Marg","amenity":"clinic","healthcare":"clinic","healthcare:speciality":"general;gynaecology;ophthalmology;paediatrics;dentist;physiotherapy;community;clinic;dermatology;cardiology;optometry;surgery;urology;acupuncture","name":"Om Shanti Churchgate J.D.F Mumbai Medical Centre Trust","opening_hours":"Mo-Sa 08:00-19:00","phone":"+912223778175 +912223635780","id":"node/7869383739"},"geometry":{"type":"Point","coordinates":[72.834865,18.9865353]}},{"type":"Feature","id":"node/8256911628","properties":{"addr:city":"Mumbai","addr:housenumber":"4, Shankar Niwas","addr:postcode":"400028","addr:street":"Dadasaheb Rege Marg , Opposite Shiv Sena Bhavan, Behind bank Of Maharashtra, Shivaji Park, Dadar West","amenity":"clinic","healthcare":"clinic","healthcare:speciality":"Orthopedics;Pediatric_Orthopedics_and_Joint_Replacement;Joint_Replacement;Sports_Injuries_Treatment;Achilles_Tendon_Injuries_Treatment;Radiculopathy_Treatment","name":"Dr. Shreedhar Archik","website":"https://www.drarchik.com/knee-replacement-surgeon-mumbai","id":"node/8256911628"},"geometry":{"type":"Point","coordinates":[72.8395684,19.0248332]}},{"type":"Feature","id":"node/8261466698","properties":{"addr:city":"East Mumbai","addr:postcode":"400008","addr:street":"DR PLUS HEALTH CARE NATHANI HEIGHTS, Opposite Mumbai Central","amenity":"clinic","check_date":"2026-03-20","healthcare":"clinic","healthcare:speciality":"ORTHOPEDIC;surgery","name":"MUMBAI SPINE CARE CLINIC","website":"https://www.mumbaispinecareclinic.com/","id":"node/8261466698"},"geometry":{"type":"Point","coordinates":[72.8204271,18.9686893]}},{"type":"Feature","id":"node/8277185744","properties":{"addr:city":"mumbai","addr:district":"Mumbai","addr:postcode":"400016","addr:street":"Ground Floor, Om Aradhana Mandir Co Operative Housing Society,(Next to Bank of Baroda, Near Raja Rani Travels), L J Road, Mahim","amenity":"clinic","healthcare":"clinic","healthcare:speciality":"Complex_Primary_and_Re-do_Joint_Replacement_Surgeries;orthopaedics;general","name":"DR ANOOP DHAMANGOANKAR","opening_hours":"Mo-Sa 09:00-20:00","operator":"MR. ANOOP C. DHAMANGOANKAR","operator:type":"private","website":"https://www.dranoopdhamangaonkar.com/","id":"node/8277185744"},"geometry":{"type":"Point","coordinates":[72.8413417,19.0290045]}},{"type":"Feature","id":"node/8633083017","properties":{"addr:city":"Mumbai","addr:postcode":"400033","addr:street":"Dattaram Lad Marg (Kala Chowky Road)","amenity":"clinic","healthcare":"clinic","name":"Samadhan Diagnostic Centre","opening_hours":"Mo-Sa 08:30-21:00; Su 09:00-12:00","phone":"+912224701238","id":"node/8633083017"},"geometry":{"type":"Point","coordinates":[72.8373606,18.9883932]}},{"type":"Feature","id":"node/8797105668","properties":{"addr:district":"Mumbai","addr:full":"Sant Savata Mali Marg, Naralwadi, Sewri, Mumbai","addr:postcode":"400027","addr:state":"Maharashtra","amenity":"hospital","source":"Local Knowledge","id":"node/8797105668"},"geometry":{"type":"Point","coordinates":[72.8416085,18.9764756]}},{"type":"Feature","id":"node/8797726541","properties":{"addr:district":"Mumbai","addr:full":"SS Wagh Marg, Old bdd chawl, Naigaon, Dadar, Mumbai","addr:postcode":"400014","addr:state":"Maharashtra","amenity":"hospital","healthcare":"hospital","name":"Naigaon Municipal Maternity Home","source":"Local Knowledge","id":"node/8797726541"},"geometry":{"type":"Point","coordinates":[72.8460141,19.0115774]}},{"type":"Feature","id":"node/8817020641","properties":{"addr:city":"Mumbai","addr:housenumber":"1877","addr:postcode":"400011","addr:street":"Doctor Anandrao Nair Marg, Near Agripada Police Station Mumbai Central East, Agripada","amenity":"hospital","check_date":"2026-03-20","healthcare":"hospital","healthcare:speciality":"Arthroplasty;Arthroscopy;Hip_Replacement;Knee_Replacement;Trauma","name":"Dr Mudit Khanna","website":"https://www.drmuditkhanna.com/","id":"node/8817020641"},"geometry":{"type":"Point","coordinates":[72.8237596,18.9752297]}},{"type":"Feature","id":"node/8839119222","properties":{"addr:city":"Mumbai","addr:postcode":"400004","addr:street":"A B Kolhatkar Marg","amenity":"clinic","healthcare":"clinic","name":"Mumbai Clinic","id":"node/8839119222"},"geometry":{"type":"Point","coordinates":[72.8219474,18.9585769]}},{"type":"Feature","id":"node/9215659357","properties":{"addr:district":"Mumbai","addr:full":"Dadar West","addr:postcode":"400028","addr:state":"Maharashtra","amenity":"hospital","description":"Private Hospital","name":"Thyrocare Aarogyam Center - Dadar West","source":"Local Knowledge","id":"node/9215659357"},"geometry":{"type":"Point","coordinates":[72.8419304,19.0207825]}},{"type":"Feature","id":"node/9990028713","properties":{"addr:city":"Mumbai","addr:district":"Mumbai","addr:postcode":"400036","addr:street":"Tejpal Marg","amenity":"clinic","email":"spjmcgowaliatank@gmail.com","healthcare":"clinic","healthcare:speciality":"ophthalmology;gynaecology;dentist;general;paediatrics;orthopaedics;dermatology;physiotherapy;radiology;diagnostic_radiology;vaccination;obstetrics","name":"Shri Gowalia Tank Shankheswara Parshwanath Jain Medical Centre & Kankutara Diagnostic Medical Centre","opening_hours":"Mo-Sa 08:00-20:00","phone":"+91-22-23823583, +91-22-23823584, +91-22-23823531, +91-22-23823532, +91-8282825836, +91-8282825837, +91-8282821926, +91-8282821927","id":"node/9990028713"},"geometry":{"type":"Point","coordinates":[72.8099188,18.9630505]}},{"type":"Feature","id":"node/10616180012","properties":{"amenity":"hospital","healthcare":"hospital","id":"node/10616180012"},"geometry":{"type":"Point","coordinates":[72.8271144,18.9783359]}},{"type":"Feature","id":"node/11341062473","properties":{"addr:city":"Mumbai","addr:district":"Mumbai","addr:housenumber":"180-B-5 Gaiwadi Girgaon Charni Road","addr:postcode":"400004","addr:street":"Jagannath Shankarsheth Marg","amenity":"clinic","healthcare":"clinic","healthcare:speciality":"ayurveda","name":"Dr Pandit's Ayurveda and Panchakarma Clinic","opening_hours":"mo-sa 11.30-6.30","operator":"Dr Mohit Pandit","operator:type":"private","id":"node/11341062473"},"geometry":{"type":"Point","coordinates":[72.8196898,18.9536335]}},{"type":"Feature","id":"node/12555159227","properties":{"addr:city":"Mumbai","addr:district":"Mumbai","addr:housenumber":"222","addr:postcode":"400008","addr:street":"Dimtimakar Road","amenity":"hospital","email":"sshaikh@gmail.com","emergency":"yes","healthcare":"hospital","healthcare:speciality":"dentist;ophthalmology;orthodontics;dermatology;biology;gynaecology;radiology;otolaryngology;orthopaedics;internal;osteopathy;plastic_surgery;chiropractic;physiotherapy;urology;general;cardiology;surgery;neurology;emergency;psychiatry;traditional_chinese_m","name":"siddiqui","opening_hours":"Mo-Su 09:00-21:00","operator":"iffat","operator:type":"public","id":"node/12555159227"},"geometry":{"type":"Point","coordinates":[72.8288189,18.9666988]}},{"type":"Feature","id":"node/12603333590","properties":{"addr:city":"Mumbai","addr:district":"Mumbai","addr:housenumber":"36/2515 Abhyudayanagar Sagar Chs","addr:postcode":"400033","addr:street":"G D Ambedkar Marg (Parel Tank Road)","amenity":"hospital","email":"sattvapediatric@gmail.com","healthcare":"hospital","healthcare:speciality":"paediatrics;vaccination;neonatology;child_psychiatry","image":"https://lh3.googleusercontent.com/p/AF1QipNqWO4N20NhKCfqGCxIpUpdiu8KE_mlghX88Cle=s1360-w1360-h1020","level":"0","mobile":"+918655285545","name":"Sattva Pediatric - Dr. Rishabh K. Shah","operator":"Dr. Rishabh K. Shah","operator:type":"private","payment:cards":"yes","payment:cash":"yes","payment:credit_cards":"yes","payment:debit_cards":"yes","payment:upi":"yes","website":"https://www.google.com/search?gs_ssp=eJzj4tVP1zc0LE_LMTbILso1YLRSNagwTko1T04zNLO0MDAxNk0ytTKoMDExSzY3Tk42TkkyTDJMM_cSKE4sKSlLVChITclMLCnKTAYA7LAV0Q&q=sattva+pediatric&oq=sattva+pediat&gs_lcrp=EgZjaHJvbWUqDQgBEC4YrwEYxwEYgAQyCggAEAAY4wIYgAQyDQgBEC4YrwEYxwE","id":"node/12603333590"},"geometry":{"type":"Point","coordinates":[72.8414756,18.9899194]}},{"type":"Feature","id":"node/12843656848","properties":{"addr:city":"Mumbai","addr:district":"Mumbai","addr:housenumber":"210","addr:postcode":"400004","addr:street":"Raja Ram Mohan Roy Road (Charni Road)","amenity":"clinic","email":"shreechandraprabhmedical@gmail.com","healthcare":"clinic","healthcare:speciality":"general;ophthalmology;gynaecology;paediatrics;dentist;dermatology;psychiatry;otolaryngology;radiology;physiotherapy;urology;blood_check;child_psychiatry;pathology","name":"Shree Chandraprabh Jain Medical Centre","opening_hours":"Mo-Sa 09:00-20:00","phone":"+91-9324292935, +91-22-23804129","id":"node/12843656848"},"geometry":{"type":"Point","coordinates":[72.81902,18.9563946]}},{"type":"Feature","id":"node/13388495692","properties":{"amenity":"clinic","healthcare":"clinic","name":"B.N.D. Onco Centre","opening_hours":"Mo-Sa 10:00-21:00","id":"node/13388495692"},"geometry":{"type":"Point","coordinates":[72.8476528,19.0169881]}},{"type":"Feature","id":"node/13388584583","properties":{"amenity":"clinic","healthcare":"clinic","healthcare:speciality":"cardiology","level":"0","name":"Pulse Cardiac Center and Speciality Clinic","id":"node/13388584583"},"geometry":{"type":"Point","coordinates":[72.8485901,19.0193504]}},{"type":"Feature","id":"node/13388584584","properties":{"amenity":"clinic","healthcare":"clinic","healthcare:speciality":"hematology","level":"0","name":"Hematology Day-Care Centre","id":"node/13388584584"},"geometry":{"type":"Point","coordinates":[72.8485416,19.019283]}},{"type":"Feature","id":"node/13633845989","properties":{"addr:city":"Mumbai","addr:district":"Mumbai","addr:postcode":"400012","addr:street":"Royal imperia building, Parmar guruji Marg, lane, next to Bharat bank, opposite to global hospital","amenity":"hospital","healthcare":"hospital","healthcare:speciality":"orthopaedic_and_spine_surgeon","name":"M J Speciality Clinic - Dr Manoj Jain","website":"https://www.drmanojjainortho.com/","id":"node/13633845989"},"geometry":{"type":"Point","coordinates":[72.8386903,19.0009418]}},{"type":"Feature","id":"node/14124408623","properties":{"amenity":"clinic","healthcare":"clinic","name":"Radhalakshmi Clinic","id":"node/14124408623"},"geometry":{"type":"Point","coordinates":[72.8424602,19.0260594]}}]}