{"type":"FeatureCollection","features":[{"type":"Feature","id":"way/27055930","properties":{"addr:city":"Mumbai","addr:postcode":"400050","alt_name":"Father Agnel College","alt_name:en":"Father Agnel College","amenity":"college","email":"crce@frcrce.ac.in","fax":"+91-22-67114100","name":"Fr Conceicao Rodrigues College of Engineering","name:en":"Fr Conceicao Rodrigues College of Engineering","phone":"+91-22-67114100","short_name":"FRCRCE","short_name:en":"FRCRCE","website":"https://fragnel.edu.in/","id":"way/27055930"},"geometry":{"type":"Point","coordinates":[72.8206694,19.0443385]}},{"type":"Feature","id":"way/38725419","properties":{"amenity":"school","building":"yes","name":"Walsingham House School","id":"way/38725419"},"geometry":{"type":"Point","coordinates":[72.7961926,18.9537631]}},{"type":"Feature","id":"way/39836739","properties":{"addr:city":"Mumbai","addr:district":"Mumbai","addr:postcode":"400007","addr:street":"Gamdevi Lane","amenity":"school","building":"yes","name":"St. Columba High School","id":"way/39836739"},"geometry":{"type":"Point","coordinates":[72.8119913,18.9606918]}},{"type":"Feature","id":"way/39842003","properties":{"amenity":"school","building":"apartments","name":"BM Ruia Girls College","id":"way/39842003"},"geometry":{"type":"Point","coordinates":[72.810409,18.959695]}},{"type":"Feature","id":"way/48748553","properties":{"addr:city":"Mumbai","addr:district":"Mumbai City","addr:housenumber":"Grant Road","addr:postcode":"400007","addr:street":"N Bharucha Marg","amenity":"school","building":"apartments","name":"Girton High School","source":"Yahoo","id":"way/48748553"},"geometry":{"type":"Point","coordinates":[72.8157116,18.9664065]}},{"type":"Feature","id":"way/76281423","properties":{"amenity":"school","check_date":"2026-03-20","name":"St. Pauls Convent","id":"way/76281423"},"geometry":{"type":"Point","coordinates":[72.8423907,19.0077826]}},{"type":"Feature","id":"way/113578550","properties":{"amenity":"college","check_date":"2026-03-20","name":"Ramnarain Ruia College","id":"way/113578550"},"geometry":{"type":"Point","coordinates":[72.8501074,19.0237226]}},{"type":"Feature","id":"way/113696497","properties":{"amenity":"school","isced:level":"1;2;3","name":"Chhabildas Boys High School","school:gender":"male","id":"way/113696497"},"geometry":{"type":"Point","coordinates":[72.84227,19.0204219]}},{"type":"Feature","id":"way/113715163","properties":{"amenity":"college","name":"Institute of Catering Hotel Management & Applied Nutrition","id":"way/113715163"},"geometry":{"type":"Point","coordinates":[72.8352839,19.0234423]}},{"type":"Feature","id":"way/113715166","properties":{"amenity":"college","name":"Kirti M. Doongursee College of Arts, Science and Commerce","name:en":"Kirti M. Doongursee College of Arts, Science and Commerce","short_name":"Kirti College","short_name:en":"Kirti College","id":"way/113715166"},"geometry":{"type":"Point","coordinates":[72.8310887,19.0213587]}},{"type":"Feature","id":"way/113715167","properties":{"amenity":"school","isced:level":"1;2;3","name":"Dr. Antonio Da Silva Technical High School & Jr. College Of Science","id":"way/113715167"},"geometry":{"type":"Point","coordinates":[72.834934,19.0227356]}},{"type":"Feature","id":"way/113716553","properties":{"amenity":"school","name":"Bombay Scottish","old_name":"Scottish Orphanage","wikidata":"Q3631441","wikimedia_commons":"Category:Bombay Scottish School","wikipedia":"en:Bombay Scottish School, Mahim","id":"way/113716553"},"geometry":{"type":"Point","coordinates":[72.8394148,19.0341973]}},{"type":"Feature","id":"way/219426802","properties":{"amenity":"school","check_date":"2026-03-20","name":"Happy Home and School for the Blind","school":"blind","source":"GPS","id":"way/219426802"},"geometry":{"type":"Point","coordinates":[72.8142833,18.9901788]}},{"type":"Feature","id":"way/220302518","properties":{"amenity":"college","name":"Xavier Institute of Engineering","id":"way/220302518"},"geometry":{"type":"Point","coordinates":[72.8417261,19.0449383]}},{"type":"Feature","id":"way/236185640","properties":{"amenity":"college","name":"Wilson College","name:en":"Wilson College","name:etymology:wikidata":"Q6264528","name:mr":"विल्सन कॉलेज","wikidata":"Q8023015","wikimedia_commons":"Category:Wilson College, Mumbai","wikipedia":"en:Wilson College, Mumbai","id":"way/236185640"},"geometry":{"type":"Point","coordinates":[72.8110607,18.9565449]}},{"type":"Feature","id":"way/236631072","properties":{"amenity":"school","isced:level":"1;2;3","name":"Our Lady Of Salvation School","school:gender":"male","id":"way/236631072"},"geometry":{"type":"Point","coordinates":[72.8348939,19.0178541]}},{"type":"Feature","id":"way/236631074","properties":{"alt_name":"People's Education Society","amenity":"school","isced:level":"1;2;3","name":"Maharashtra High School Number 2","id":"way/236631074"},"geometry":{"type":"Point","coordinates":[72.8344352,19.0172742]}},{"type":"Feature","id":"way/237027561","properties":{"amenity":"university","check_date":"2025-01-10","name":"IES College Of Architecture","id":"way/237027561"},"geometry":{"type":"Point","coordinates":[72.8298033,19.0502184]}},{"type":"Feature","id":"way/257073104","properties":{"addr:city":"Mumbai","amenity":"school","building":"yes","name":"Mahim Police Colony Municipal School","id":"way/257073104"},"geometry":{"type":"Point","coordinates":[72.8414789,19.0477066]}},{"type":"Feature","id":"way/286014465","properties":{"addr:city":"Mumbai","addr:postcode":"400011","addr:street":"N M Joshi Marg","amenity":"school","building":"yes","building:levels":"3","education":"school","name":"Byculla School","id":"way/286014465"},"geometry":{"type":"Point","coordinates":[72.8323862,18.9809141]}},{"type":"Feature","id":"way/288426456","properties":{"addr:city":"Mumbai","addr:postcode":"400004","addr:street":"Sadashiva Cross Lane","amenity":"school","building":"yes","building:levels":"5","name":"Chikitsak Samuh High School","id":"way/288426456"},"geometry":{"type":"Point","coordinates":[72.8214114,18.9551384]}},{"type":"Feature","id":"way/332516150","properties":{"addr:city":"Mumbai","addr:housenumber":"68","addr:street":"Walkeshwar Road","amenity":"school","building":"yes","building:levels":"6","name":"Gopi Birla Memorial School","id":"way/332516150"},"geometry":{"type":"Point","coordinates":[72.8033764,18.9521161]}},{"type":"Feature","id":"way/347010736","properties":{"addr:street":"Jagannath Shankarsheth Marg","amenity":"school","building":"yes","name":"Aryan E.S. High School","wikidata":"Q4802640","id":"way/347010736"},"geometry":{"type":"Point","coordinates":[72.8173833,18.9561135]}},{"type":"Feature","id":"way/347012133","properties":{"addr:city":"Mumbai","addr:postcode":"400004","addr:street":"Sardar Vallabhbhai Patel Marg (Sandhurst Road)","amenity":"school","building":"yes","name":"Marwari Vidyalaya High School","id":"way/347012133"},"geometry":{"type":"Point","coordinates":[72.8180194,18.9573233]}},{"type":"Feature","id":"way/353175766","properties":{"amenity":"school","building":"yes","isced:level":"1;2;3","name":"Sane Guruji Vidyalaya","name:etymology:wikidata":"Q55769","id":"way/353175766"},"geometry":{"type":"Point","coordinates":[72.8360023,19.0227772]}},{"type":"Feature","id":"way/353203398","properties":{"amenity":"school","building":"yes","education":"school","name":"KK Marg Municipal School","operator":"Brihanmumbai Municipal Corporation","operator:type":"public/government","id":"way/353203398"},"geometry":{"type":"Point","coordinates":[72.8222742,18.9660054]}},{"type":"Feature","id":"way/353354801","properties":{"amenity":"school","building":"apartments","building:levels":"8","name":"Podar International School","id":"way/353354801"},"geometry":{"type":"Point","coordinates":[72.8141633,18.9973687]}},{"type":"Feature","id":"way/353364856","properties":{"amenity":"school","building":"yes","name":"Sir Jacob Sasoon High School","id":"way/353364856"},"geometry":{"type":"Point","coordinates":[72.8324037,18.96703]}},{"type":"Feature","id":"way/353377165","properties":{"amenity":"school","building":"yes","name":"B.K.M. High School","id":"way/353377165"},"geometry":{"type":"Point","coordinates":[72.8073544,18.9560629]}},{"type":"Feature","id":"way/353394683","properties":{"amenity":"school","building":"yes","name":"St. Agnes' High School","id":"way/353394683"},"geometry":{"type":"Point","coordinates":[72.830444,18.9708637]}},{"type":"Feature","id":"way/353394704","properties":{"amenity":"school","building":"yes","building:levels":"4","name":"E.E.E. Sassoon High School","id":"way/353394704"},"geometry":{"type":"Point","coordinates":[72.8307703,18.967056]}},{"type":"Feature","id":"way/353395699","properties":{"amenity":"school","building":"yes","isced:level":"1;2;3","name":"D Y Patil International School","website":"https://www.dypisworli.in/","id":"way/353395699"},"geometry":{"type":"Point","coordinates":[72.8210703,19.0159012]}},{"type":"Feature","id":"way/353407984","properties":{"amenity":"school","building":"yes","building:levels":"7","name":"Fellowship International School","id":"way/353407984"},"geometry":{"type":"Point","coordinates":[72.8108474,18.9616576]}},{"type":"Feature","id":"way/353407985","properties":{"amenity":"school","building":"yes","building:levels":"7","name":"Fellowship School","id":"way/353407985"},"geometry":{"type":"Point","coordinates":[72.8109956,18.9620041]}},{"type":"Feature","id":"way/353407996","properties":{"amenity":"school","building":"yes","name":"DSB International School","id":"way/353407996"},"geometry":{"type":"Point","coordinates":[72.8081012,18.957157]}},{"type":"Feature","id":"way/353408060","properties":{"amenity":"school","building":"yes","name":"St. Columba Marathi Primary School","id":"way/353408060"},"geometry":{"type":"Point","coordinates":[72.812355,18.9615456]}},{"type":"Feature","id":"way/353408072","properties":{"addr:housenumber":"13","addr:street":"N S Patkar Marg","amenity":"school","building":"yes","name":"New Activity School","id":"way/353408072"},"geometry":{"type":"Point","coordinates":[72.8084638,18.9621672]}},{"type":"Feature","id":"way/353411203","properties":{"amenity":"school","name":"Christ Church School","wikidata":"Q5108823","wikipedia":"en:Christ Church School","id":"way/353411203"},"geometry":{"type":"Point","coordinates":[72.8316673,18.9697524]}},{"type":"Feature","id":"way/353424037","properties":{"amenity":"school","building":"yes","name":"Queen Mary's Girls School","school:gender":"female","id":"way/353424037"},"geometry":{"type":"Point","coordinates":[72.8150009,18.9591738]}},{"type":"Feature","id":"way/353427006","properties":{"amenity":"prep_school","building":"yes","name":"Shivvidya Prabodhini IAS Academy","id":"way/353427006"},"geometry":{"type":"Point","coordinates":[72.8287477,19.0123399]}},{"type":"Feature","id":"way/353750257","properties":{"addr:housenumber":"6","addr:street":"Khan Abdul Gaffar Khan Marg","amenity":"school","building":"yes","name":"Greenlawns School Worli","wikidata":"Q5604266","wikipedia":"en:Greenlawns School Worli","id":"way/353750257"},"geometry":{"type":"Point","coordinates":[72.8173628,19.012927]}},{"type":"Feature","id":"way/353757972","properties":{"addr:city":"Mumbai","addr:housenumber":"26","addr:postcode":"400025","addr:street":"Sasmira Marg, Municipal Colony, Shivaji Nagar, Worli","amenity":"school","building":"yes","name":"Sacred Heart High School","id":"way/353757972"},"geometry":{"type":"Point","coordinates":[72.8193292,19.0149678]}},{"type":"Feature","id":"way/353761087","properties":{"addr:housenumber":"4/B","addr:street":"Kashibai Navrange Marg (Alexandra Road)","amenity":"school","building":"yes","name":"The New Era School","id":"way/353761087"},"geometry":{"type":"Point","coordinates":[72.8088871,18.9618508]}},{"type":"Feature","id":"way/353790686","properties":{"amenity":"school","building:levels":"7","name":"Sitaram School","id":"way/353790686"},"geometry":{"type":"Point","coordinates":[72.82863,18.9909142]}},{"type":"Feature","id":"way/353799688","properties":{"amenity":"school","building":"yes","name":"N.M. Joshi Marg Municipal Secondary School","id":"way/353799688"},"geometry":{"type":"Point","coordinates":[72.8321729,18.9912214]}},{"type":"Feature","id":"way/353825818","properties":{"amenity":"school","building":"yes","name":"Maratha High School","id":"way/353825818"},"geometry":{"type":"Point","coordinates":[72.8224365,19.0011241]}},{"type":"Feature","id":"way/353825842","properties":{"amenity":"school","building":"yes","name":"Ganpatrao Kadam Marg BMC School","id":"way/353825842"},"geometry":{"type":"Point","coordinates":[72.824211,18.9979418]}},{"type":"Feature","id":"way/353995767","properties":{"amenity":"school","building":"yes","check_date":"2026-03-20","education":"school","name":"PES Maharashtra High School","id":"way/353995767"},"geometry":{"type":"Point","coordinates":[72.8316497,18.9939877]}},{"type":"Feature","id":"way/353996862","properties":{"amenity":"college","building":"yes","name":"The NAB Workshop For The Blind","school":"blind","id":"way/353996862"},"geometry":{"type":"Point","coordinates":[72.8208259,19.0115252]}},{"type":"Feature","id":"way/354015397","properties":{"amenity":"school","building":"yes","name":"Stephen High School For The Hearing Handicapped","id":"way/354015397"},"geometry":{"type":"Point","coordinates":[72.8317836,19.016825]}},{"type":"Feature","id":"way/354041997","properties":{"amenity":"school","building":"yes","name":"Talchekar Wadi Municipal School And Hall","id":"way/354041997"},"geometry":{"type":"Point","coordinates":[72.830918,18.9994082]}},{"type":"Feature","id":"way/354262712","properties":{"amenity":"school","building":"yes","isced:level":"1;2;3","name":"IES Modern English School","id":"way/354262712"},"geometry":{"type":"Point","coordinates":[72.8362364,19.0223269]}},{"type":"Feature","id":"way/354262742","properties":{"amenity":"school","building":"yes","isced:level":"1;2;3","name":"Nabar Guruji School","id":"way/354262742"},"geometry":{"type":"Point","coordinates":[72.8368827,19.0196262]}},{"type":"Feature","id":"way/354262887","properties":{"amenity":"school","building":"yes","isced:level":"1;2;3","name":"Gokhale Road Municipal School","id":"way/354262887"},"geometry":{"type":"Point","coordinates":[72.834793,19.0167435]}},{"type":"Feature","id":"way/356187624","properties":{"amenity":"school","building":"yes","name":"M.S.P.T. High School","id":"way/356187624"},"geometry":{"type":"Point","coordinates":[72.8136475,18.960372]}},{"type":"Feature","id":"way/356187783","properties":{"addr:street":"Allibhai Premji Marg (Foras Road)","amenity":"school","building":"yes","check_date":"2026-03-20","name":"Our Own High School","id":"way/356187783"},"geometry":{"type":"Point","coordinates":[72.8163524,18.9626789]}},{"type":"Feature","id":"way/356207224","properties":{"addr:city":"Mumbai","amenity":"school","building":"yes","building:levels":"4","name":"Ahmed Sailor High School","id":"way/356207224"},"geometry":{"type":"Point","coordinates":[72.8301228,18.9651298]}},{"type":"Feature","id":"way/356294784","properties":{"amenity":"school","building":"yes","name":"Navbharat School","id":"way/356294784"},"geometry":{"type":"Point","coordinates":[72.8443389,19.0059112]}},{"type":"Feature","id":"way/356294928","properties":{"amenity":"school","building":"yes","name":"Dr. D.B.Kulkarni Vidhyalay","id":"way/356294928"},"geometry":{"type":"Point","coordinates":[72.8449161,19.0102671]}},{"type":"Feature","id":"way/356454578","properties":{"addr:city":"Mumbai","amenity":"school","building":"yes","name":"Mahim Mori Road Municipal Marathi School","id":"way/356454578"},"geometry":{"type":"Point","coordinates":[72.8424371,19.0419927]}},{"type":"Feature","id":"way/357187182","properties":{"amenity":"school","building":"yes","name":"Bombay Girls' High School","id":"way/357187182"},"geometry":{"type":"Point","coordinates":[72.848563,19.0336688]}},{"type":"Feature","id":"way/357360555","properties":{"addr:city":"Mumbai","amenity":"college","building":"yes","name":"Lokmanya Vidya Mandir Jr College","id":"way/357360555"},"geometry":{"type":"Point","coordinates":[72.8439249,19.0329465]}},{"type":"Feature","id":"way/359528686","properties":{"amenity":"school","building":"yes","building:levels":"7","name":"Maulana Azad High School","id":"way/359528686"},"geometry":{"type":"Point","coordinates":[72.8277887,18.9761748]}},{"type":"Feature","id":"way/359690892","properties":{"amenity":"school","building":"yes","name":"St. Isabel High School","id":"way/359690892"},"geometry":{"type":"Point","coordinates":[72.8406141,18.9721095]}},{"type":"Feature","id":"way/428199723","properties":{"amenity":"school","name":"St Peter's School","id":"way/428199723"},"geometry":{"type":"Point","coordinates":[72.8406495,18.9674525]}},{"type":"Feature","id":"way/430223746","properties":{"amenity":"college","check_date":"2026-03-20","name":"Dr Anandrao Nair Hospital and Topiwala Medical College","id":"way/430223746"},"geometry":{"type":"Point","coordinates":[72.8219795,18.9743311]}},{"type":"Feature","id":"way/436455880","properties":{"addr:postcode":"400010","addr:street":"S B Dhody Marg (Nesbit Road)","amenity":"school","name":"St. Mary's School (ICSE)","id":"way/436455880"},"geometry":{"type":"Point","coordinates":[72.8352728,18.9692127]}},{"type":"Feature","id":"way/625809287","properties":{"amenity":"school","name":"Baradevi Municipal School","id":"way/625809287"},"geometry":{"type":"Point","coordinates":[72.8479402,19.0000399]}},{"type":"Feature","id":"way/685548839","properties":{"amenity":"school","building":"yes","check_date":"2026-03-20","fee":"yes","name":"IES V N Sule Guruji","id":"way/685548839"},"geometry":{"type":"Point","coordinates":[72.8486723,19.0219579]}},{"type":"Feature","id":"way/685548841","properties":{"amenity":"school","building":"yes","fee":"yes","isced:level":"1;2;3","name":"Raja Shivaji Vidyalay","id":"way/685548841"},"geometry":{"type":"Point","coordinates":[72.8489849,19.0217209]}},{"type":"Feature","id":"way/685548843","properties":{"amenity":"school","building":"yes","check_date":"2026-03-20","fee":"yes","isced:level":"1;2;3","name":"Digambar Patkar Vidyalaya","id":"way/685548843"},"geometry":{"type":"Point","coordinates":[72.8487567,19.021341]}},{"type":"Feature","id":"way/685548846","properties":{"amenity":"school","building":"yes","check_date":"2026-03-20","fee":"yes","isced:level":"2;3","name":"IES Orion","id":"way/685548846"},"geometry":{"type":"Point","coordinates":[72.8481565,19.0214133]}},{"type":"Feature","id":"way/725098202","properties":{"addr:city":"Mumbai","addr:postcode":"400013","addr:street":"Ganpatrao Kadam Mar","amenity":"school","building":"yes","building:levels":"9","name":"French International School of Mumbai","name:fr":"Ecole Francaise Internationale Bombay","source":"http://www.efib.in/fr/wp-admin/wp-content/uploads/sites/2/2015/PDF/Presentation%20Building%20EFIB%20compressed%20x.pdf","website":"http://www.efib.in","id":"way/725098202"},"geometry":{"type":"Point","coordinates":[72.8282382,18.9966244]}},{"type":"Feature","id":"way/752114567","properties":{"amenity":"school","name":"Activity High School","operator:type":"private","id":"way/752114567"},"geometry":{"type":"Point","coordinates":[72.8088626,18.9743163]}},{"type":"Feature","id":"way/753815723","properties":{"amenity":"school","isced:level":"3","name":"Mahalaxmi Municipal School","operator:type":"public","id":"way/753815723"},"geometry":{"type":"Point","coordinates":[72.8073644,18.9765698]}},{"type":"Feature","id":"way/794424283","properties":{"amenity":"school","name":"Worli Naka Upper Primary Marathi School No.2","id":"way/794424283"},"geometry":{"type":"Point","coordinates":[72.8162217,19.0074047]}},{"type":"Feature","id":"way/936795318","properties":{"amenity":"school","name":"Central Railway Primary Education School","id":"way/936795318"},"geometry":{"type":"Point","coordinates":[72.8377945,19.0020622]}},{"type":"Feature","id":"way/961376713","properties":{"amenity":"school","check_date":"2026-03-20","name":"JBCN International School","id":"way/961376713"},"geometry":{"type":"Point","coordinates":[72.8456969,18.9990376]}},{"type":"Feature","id":"way/975603216","properties":{"addr:city":"Mumbai","addr:housenumber":"8","addr:postcode":"400008","addr:street":"M Shibli Marg (Shepherd Road)","amenity":"college","contact:phone":"022 23012922","name":"Anjuman-I-Islam's M.H. Saboo Siddik College of Engineering","website":"https://www.mhssce.ac.in/","id":"way/975603216"},"geometry":{"type":"Point","coordinates":[72.8310564,18.968232]}},{"type":"Feature","id":"way/978614994","properties":{"amenity":"school","isced:level":"1;2;3","name":"Globe Mill Passage Municipal School","id":"way/978614994"},"geometry":{"type":"Point","coordinates":[72.8298994,19.0065663]}},{"type":"Feature","id":"way/978614996","properties":{"addr:postcode":"400013","addr:street":"Senapati Bapat Marg (Tulsi Pipe Road)","amenity":"school","isced:level":"1;2;3","name":"Holy Cross High School","id":"way/978614996"},"geometry":{"type":"Point","coordinates":[72.8319183,19.005935]}},{"type":"Feature","id":"way/978614999","properties":{"amenity":"college","landuse":"education","name":"D G Ruparel College of Arts, Science and Commerce","id":"way/978614999"},"geometry":{"type":"Point","coordinates":[72.8449849,19.0270706]}},{"type":"Feature","id":"way/978615006","properties":{"amenity":"school","building":"yes","name":"Balmohan Vidyamandir","id":"way/978615006"},"geometry":{"type":"Point","coordinates":[72.839202,19.0253532]}},{"type":"Feature","id":"way/978615010","properties":{"amenity":"school","building":"yes","check_date":"2026-03-20","fee":"yes","isced:level":"1","name":"IES Padmakar Dhamdhere","id":"way/978615010"},"geometry":{"type":"Point","coordinates":[72.8480713,19.0218132]}},{"type":"Feature","id":"way/979362799","properties":{"amenity":"school","building":"yes","building:levels":"3","name":"St. Teresa High School","wikidata":"Q17153100","wikimedia_commons":"Category:St. Teresa's High School, Charni Road","wikipedia":"en:St. Teresa's High School, Charni Road","id":"way/979362799"},"geometry":{"type":"Point","coordinates":[72.8191173,18.9527833]}},{"type":"Feature","id":"way/979362804","properties":{"amenity":"school","building":"school","name":"Victoria Memorial School for the Blind","school":"blind","id":"way/979362804"},"geometry":{"type":"Point","coordinates":[72.8140025,18.9743336]}},{"type":"Feature","id":"way/979362806","properties":{"amenity":"school","name":"Yusuf Meherali Vidyalaya","id":"way/979362806"},"geometry":{"type":"Point","coordinates":[72.8178937,18.973345]}},{"type":"Feature","id":"way/979362809","properties":{"amenity":"school","building":"yes","building:levels":"3","name":"Sir C. J. High School (Secondary)","id":"way/979362809"},"geometry":{"type":"Point","coordinates":[72.8167337,18.9719994]}},{"type":"Feature","id":"way/979362815","properties":{"amenity":"school","name":"Hill Spring International School","id":"way/979362815"},"geometry":{"type":"Point","coordinates":[72.812737,18.9729563]}},{"type":"Feature","id":"way/979362816","properties":{"amenity":"school","building":"yes","check_date":"2026-03-20","name":"Bai Ruttonbai F D Panday Girls' High School","id":"way/979362816"},"geometry":{"type":"Point","coordinates":[72.8180127,18.9672012]}},{"type":"Feature","id":"way/979371199","properties":{"amenity":"school","building":"yes","name":"Bai Ratan F. Pavri High School","id":"way/979371199"},"geometry":{"type":"Point","coordinates":[72.8215919,18.9609663]}},{"type":"Feature","id":"way/979371200","properties":{"amenity":"school","name":"St. Mary's High School (S.S.C.)","wikidata":"Q7590421","wikipedia":"en:St. Mary's School, Mumbai","id":"way/979371200"},"geometry":{"type":"Point","coordinates":[72.8360905,18.9700631]}},{"type":"Feature","id":"way/979371201","properties":{"amenity":"school","check_date":"2026-03-20","education":"school","name":"St. Joseph's Girls' High School","id":"way/979371201"},"geometry":{"type":"Point","coordinates":[72.8256628,18.9733905]}},{"type":"Feature","id":"way/979371202","properties":{"amenity":"school","name":"Regina Pacis Convent High School","school:gender":"female","id":"way/979371202"},"geometry":{"type":"Point","coordinates":[72.8347158,18.9738943]}},{"type":"Feature","id":"way/979371204","properties":{"amenity":"school","education":"school","name":"Hume High School","id":"way/979371204"},"geometry":{"type":"Point","coordinates":[72.8334143,18.9672434]}},{"type":"Feature","id":"way/979371205","properties":{"amenity":"school","name":"St. Anthony's Home And Girl's High School","id":"way/979371205"},"geometry":{"type":"Point","coordinates":[72.8257761,18.9674337]}},{"type":"Feature","id":"way/979371206","properties":{"amenity":"school","education":"school","name":"Kamathipura BMC Municipal School","id":"way/979371206"},"geometry":{"type":"Point","coordinates":[72.8254601,18.9650418]}},{"type":"Feature","id":"way/979386027","properties":{"amenity":"school","check_date":"2026-03-20","name":"Social Service League High School","id":"way/979386027"},"geometry":{"type":"Point","coordinates":[72.8384314,19.0051834]}},{"type":"Feature","id":"way/979397731","properties":{"amenity":"school","name":"Victoria High school","id":"way/979397731"},"geometry":{"type":"Point","coordinates":[72.8419304,19.0350475]}},{"type":"Feature","id":"way/979397732","properties":{"amenity":"school","name":"SaS Billabong High International School","id":"way/979397732"},"geometry":{"type":"Point","coordinates":[72.8391902,19.0393991]}},{"type":"Feature","id":"way/979397734","properties":{"alt_name":"Saraswati Mandir Education Society's High School","amenity":"school","building":"yes","name":"SMES High School","website":"https://www.smesschoolmahim.edu.in/","id":"way/979397734"},"geometry":{"type":"Point","coordinates":[72.8474457,19.0347486]}},{"type":"Feature","id":"way/979397736","properties":{"amenity":"school","name":"Mahim Causeway Municipal Marathi School","id":"way/979397736"},"geometry":{"type":"Point","coordinates":[72.8380082,19.0473358]}},{"type":"Feature","id":"way/979397737","properties":{"amenity":"school","name":"Canossa Special School","id":"way/979397737"},"geometry":{"type":"Point","coordinates":[72.8440117,19.0380579]}},{"type":"Feature","id":"way/979397738","properties":{"amenity":"school","name":"Canossa Girls High School","opening_hours":"Mo-Fr 07:00-15:00; Sa 07:00-15:00","id":"way/979397738"},"geometry":{"type":"Point","coordinates":[72.8433285,19.0395689]}},{"type":"Feature","id":"way/979397741","properties":{"amenity":"college","name":"A.I.’s Allana Boys High School & Jr. College","id":"way/979397741"},"geometry":{"type":"Point","coordinates":[72.8485721,19.0332913]}},{"type":"Feature","id":"way/979397745","properties":{"amenity":"school","name":"St. Michael High School","website":"https://www.stmichaelshighschool.com/","id":"way/979397745"},"geometry":{"type":"Point","coordinates":[72.8407723,19.0423617]}},{"type":"Feature","id":"way/979583328","properties":{"alt_name":"Muktangan School","amenity":"school","building":"yes","isced:level":"1;2;3","name":"Elphinstone Road Municipal School","operator":"BMC","operator:type":"government","id":"way/979583328"},"geometry":{"type":"Point","coordinates":[72.8354724,19.0075113]}},{"type":"Feature","id":"way/979583329","properties":{"amenity":"college","education":"college","name":"Lala Lajpatrai College","name:etymology:wikidata":"Q1395763","id":"way/979583329"},"geometry":{"type":"Point","coordinates":[72.8144135,18.9812332]}},{"type":"Feature","id":"way/979583330","properties":{"amenity":"school","name":"Worli Seaface BMC High School","id":"way/979583330"},"geometry":{"type":"Point","coordinates":[72.8158338,19.0096347]}},{"type":"Feature","id":"way/979610950","properties":{"amenity":"school","building":"yes","check_date":"2026-03-20","education":"school","name":"Omkar Education Sangh","id":"way/979610950"},"geometry":{"type":"Point","coordinates":[72.8425324,19.0120041]}},{"type":"Feature","id":"way/979610953","properties":{"amenity":"school","name":"Abhyudaya Nagar Municipal School","operator":"BMC","operator:type":"government","id":"way/979610953"},"geometry":{"type":"Point","coordinates":[72.8429131,18.9906119]}},{"type":"Feature","id":"way/981822226","properties":{"amenity":"school","isced:level":"1;2;3","name":"Sayani Road Municipal School","operator":"BMC","operator:type":"government","id":"way/981822226"},"geometry":{"type":"Point","coordinates":[72.8322785,19.0139108]}},{"type":"Feature","id":"way/981822227","properties":{"amenity":"college","name":"Rachana Sansad's Academy Of Architecture","id":"way/981822227"},"geometry":{"type":"Point","coordinates":[72.8312361,19.0148468]}},{"type":"Feature","id":"way/981962241","properties":{"amenity":"school","name":"Muktangan School","id":"way/981962241"},"geometry":{"type":"Point","coordinates":[72.8303204,19.0068416]}},{"type":"Feature","id":"way/1132674016","properties":{"amenity":"school","name":"Sophia college","wikidata":"Q7562862","wikipedia":"en:Sophia College for Women","id":"way/1132674016"},"geometry":{"type":"Point","coordinates":[72.8072655,18.9695199]}},{"type":"Feature","id":"way/1171645929","properties":{"amenity":"school","name":"Saifi High School","id":"way/1171645929"},"geometry":{"type":"Point","coordinates":[72.8326507,18.95511]}},{"type":"Feature","id":"way/1227731048","properties":{"amenity":"school","name":"Mumbai Public School","name:en":"Mumbai Public School","id":"way/1227731048"},"geometry":{"type":"Point","coordinates":[72.8371781,19.0057507]}},{"type":"Feature","id":"way/1289073491","properties":{"amenity":"college","name":"National Medical College","id":"way/1289073491"},"geometry":{"type":"Point","coordinates":[72.8142124,18.9796715]}},{"type":"Feature","id":"way/1387161513","properties":{"amenity":"school","name":"RC Mahim Municipal School","operator":"Brihanmumbai Municipal Corporation","operator:type":"government","id":"way/1387161513"},"geometry":{"type":"Point","coordinates":[72.8406209,19.0403129]}},{"type":"Feature","id":"way/1412316695","properties":{"amenity":"school","name":"Mount Mary Convent High School","name:en":"Mount Mary Convent High School","id":"way/1412316695"},"geometry":{"type":"Point","coordinates":[72.8227815,19.0461101]}},{"type":"Feature","id":"way/1491318915","properties":{"amenity":"school","education":"school","name":"Chotani Road Municipal High School","name:en":"Chotani Road Municipal High School","id":"way/1491318915"},"geometry":{"type":"Point","coordinates":[72.844358,19.0388027]}},{"type":"Feature","id":"node/2457605417","properties":{"amenity":"school","check_date":"2026-03-20","name":"Edubridge International School","id":"node/2457605417"},"geometry":{"type":"Point","coordinates":[72.815365,18.9600399]}},{"type":"Feature","id":"node/5721900390","properties":{"amenity":"music_school","check_date":"2026-03-20","name":"The True School Of Music","id":"node/5721900390"},"geometry":{"type":"Point","coordinates":[72.828015,18.9957036]}},{"type":"Feature","id":"node/7405089091","properties":{"amenity":"school","name":"The Golden Spiral School","id":"node/7405089091"},"geometry":{"type":"Point","coordinates":[72.813493,18.9737612]}},{"type":"Feature","id":"node/7405863748","properties":{"amenity":"school","name":"The Universal School, Tardeo","id":"node/7405863748"},"geometry":{"type":"Point","coordinates":[72.8140038,18.9651298]}},{"type":"Feature","id":"node/7405863749","properties":{"amenity":"school","check_date":"2026-03-20","name":"Grant Road Central High School","id":"node/7405863749"},"geometry":{"type":"Point","coordinates":[72.8159226,18.9634363]}},{"type":"Feature","id":"node/7405863760","properties":{"amenity":"college","name":"Nagrik Shikshan Sanstha's College Of Commerce & Economics","id":"node/7405863760"},"geometry":{"type":"Point","coordinates":[72.8127402,18.9734614]}},{"type":"Feature","id":"node/7411177793","properties":{"amenity":"school","name":"Tardeo Municipal Secondary School","id":"node/7411177793"},"geometry":{"type":"Point","coordinates":[72.8173698,18.9709943]}},{"type":"Feature","id":"node/7411177794","properties":{"amenity":"university","name":"Swami Educational Society-Madurai Kamaraj University","id":"node/7411177794"},"geometry":{"type":"Point","coordinates":[72.8170518,18.9706634]}},{"type":"Feature","id":"node/7411177799","properties":{"amenity":"school","check_date":"2026-03-20","name":"Education Inspector South","id":"node/7411177799"},"geometry":{"type":"Point","coordinates":[72.8185191,18.9675962]}},{"type":"Feature","id":"node/7411177802","properties":{"amenity":"college","name":"Navneet Education Society Night Degree College","id":"node/7411177802"},"geometry":{"type":"Point","coordinates":[72.8190128,18.9687473]}},{"type":"Feature","id":"node/7411177803","properties":{"amenity":"school","name":"Gilder Lane Muncipal School","id":"node/7411177803"},"geometry":{"type":"Point","coordinates":[72.8189721,18.9684792]}},{"type":"Feature","id":"node/7411177813","properties":{"amenity":"college","name":"Maratha Mandir's Babasaheb Gawde Institute of Technology","id":"node/7411177813"},"geometry":{"type":"Point","coordinates":[72.8220205,18.9708186]}},{"type":"Feature","id":"node/7414783353","properties":{"amenity":"driving_school","name":"Lucky Motor Training School","id":"node/7414783353"},"geometry":{"type":"Point","coordinates":[72.8276963,18.9749159]}},{"type":"Feature","id":"node/7414783359","properties":{"addr:housenumber":"Nm Joshi Marg, Near Bycullaw Railway Station, Mumbai, Maharashtra","amenity":"school","name":"Sadhvi Savitribai Phule Upper Primary School","id":"node/7414783359"},"geometry":{"type":"Point","coordinates":[72.8319417,18.9764347]}},{"type":"Feature","id":"node/7414791530","properties":{"amenity":"school","name":"Napoo High School","id":"node/7414791530"},"geometry":{"type":"Point","coordinates":[72.8347715,18.9871]}},{"type":"Feature","id":"node/7425930335","properties":{"addr:housenumber":"16","addr:street":"Sir Pochkhanawala Road","amenity":"school","name":"Worli Seaface Municipal School","id":"node/7425930335"},"geometry":{"type":"Point","coordinates":[72.8157382,19.0086699]}},{"type":"Feature","id":"node/7430392503","properties":{"amenity":"school","check_date":"2026-03-20","fixme":"does not exist here, nor is this place called Worli Naka","name":"Worli Naka Upper Primary School-Tamil","id":"node/7430392503"},"geometry":{"type":"Point","coordinates":[72.8285467,18.9869676]}},{"type":"Feature","id":"node/7430392504","properties":{"amenity":"school","check_date":"2026-03-20","name":"KASTURBA GANDHI MUNICIPAL SCHOOL","id":"node/7430392504"},"geometry":{"type":"Point","coordinates":[72.8214434,18.9956112]}},{"type":"Feature","id":"node/7434309486","properties":{"addr:postcode":"400013","addr:street":"Pandurang Budhkar Marg","amenity":"school","name":"Kamaladevi Gobindram Tahiliani High School","id":"node/7434309486"},"geometry":{"type":"Point","coordinates":[72.8304056,19.0058854]}},{"type":"Feature","id":"node/7434309508","properties":{"amenity":"college","name":"Sneha lata Rane Girls High School and Junior College","id":"node/7434309508"},"geometry":{"type":"Point","coordinates":[72.8316628,18.9861213]}},{"type":"Feature","id":"node/7438485774","properties":{"amenity":"college","name":"ABA College of Law","id":"node/7438485774"},"geometry":{"type":"Point","coordinates":[72.8345634,19.016964]}},{"type":"Feature","id":"node/7438485781","properties":{"amenity":"art_school","name":"Unnati School Of Art","id":"node/7438485781"},"geometry":{"type":"Point","coordinates":[72.8319373,19.0185277]}},{"type":"Feature","id":"node/7438485782","properties":{"amenity":"college","name":"Government Technical High School & Jr. College, Dadar","id":"node/7438485782"},"geometry":{"type":"Point","coordinates":[72.8320298,19.019274]}},{"type":"Feature","id":"node/7442381761","properties":{"addr:street":"College Lane, MTNL Marg","amenity":"school","name":"Pragati School","id":"node/7442381761"},"geometry":{"type":"Point","coordinates":[72.8356824,19.0209617]}},{"type":"Feature","id":"node/7442381763","properties":{"amenity":"college","name":"Kohinoor College of Hospitality Management & Tourism Studies","website":"https://kohinoorcollege.com/","id":"node/7442381763"},"geometry":{"type":"Point","coordinates":[72.8358686,19.0229262]}},{"type":"Feature","id":"node/7442381765","properties":{"amenity":"prep_school","name":"National School Of Banking","id":"node/7442381765"},"geometry":{"type":"Point","coordinates":[72.8361835,19.0222101]}},{"type":"Feature","id":"node/7442381773","properties":{"addr:street":"Jamshetji Road","amenity":"school","name":"St. Michaels English Primary School","id":"node/7442381773"},"geometry":{"type":"Point","coordinates":[72.8399288,19.0313861]}},{"type":"Feature","id":"node/7442381774","properties":{"addr:street":"L.J. Cross Road 2","amenity":"school","name":"R.C.Mahim Municipal Urdu Primary","id":"node/7442381774"},"geometry":{"type":"Point","coordinates":[72.8400202,19.0295396]}},{"type":"Feature","id":"node/7442452588","properties":{"amenity":"college","name":"Dadar Vidya Mandir Junior College","id":"node/7442452588"},"geometry":{"type":"Point","coordinates":[72.8415661,19.028379]}},{"type":"Feature","id":"node/7442452591","properties":{"amenity":"college","name":"Saraswati College","id":"node/7442452591"},"geometry":{"type":"Point","coordinates":[72.841612,19.0190223]}},{"type":"Feature","id":"node/7442452594","properties":{"amenity":"prep_school","name":"Prahar Academy","id":"node/7442452594"},"geometry":{"type":"Point","coordinates":[72.8423049,19.017377]}},{"type":"Feature","id":"node/7442452600","properties":{"amenity":"school","check_date":"2026-03-20","isced:level":"1;2;3","name":"Shishuvihar Madhyamik Vidhyala","id":"node/7442452600"},"geometry":{"type":"Point","coordinates":[72.8477584,19.0224005]}},{"type":"Feature","id":"node/7442452610","properties":{"amenity":"school","name":"Saraswati Mandir School","id":"node/7442452610"},"geometry":{"type":"Point","coordinates":[72.8481813,19.0200022]}},{"type":"Feature","id":"node/7442452611","properties":{"amenity":"school","education":"school","fee":"yes","isced:level":"1","name":"Patkar Guruji Vidyalaya","id":"node/7442452611"},"geometry":{"type":"Point","coordinates":[72.8487774,19.0206415]}},{"type":"Feature","id":"node/7459352409","properties":{"amenity":"language_school","name":"Tendulkar's Language Academy","id":"node/7459352409"},"geometry":{"type":"Point","coordinates":[72.8423528,19.0320153]}},{"type":"Feature","id":"node/7459352437","properties":{"addr:housenumber":"207/2nd Floor, Gala No. 207","addr:street":"Gabriel Road","amenity":"dancing_school","name":"Phulawa's School of Dance and Gymnastics","id":"node/7459352437"},"geometry":{"type":"Point","coordinates":[72.8429668,19.0383437]}},{"type":"Feature","id":"node/7912405385","properties":{"addr:housenumber":"#84","addr:postcode":"400009","addr:street":"C.V.O.D. Jain Pathshala, SVP Road, Samuel Street (PalaGaly), Masjid Bunder","amenity":"school","email":"communications.oisp@orchids.edu.in","name:en":"Orchids The International School, Masjid Bunder","opening_hours":"Mo-Su 09:00-18:30","operator":"Orchids International School","phone":"9513731352","website":"https://www.orchidsinternationalschool.com/mumbai-branches/masjid-bunder/","id":"node/7912405385"},"geometry":{"type":"Point","coordinates":[72.8366214,18.9562488]}},{"type":"Feature","id":"node/9055069383","properties":{"amenity":"school","name":"Prabhadevi Municipal School","id":"node/9055069383"},"geometry":{"type":"Point","coordinates":[72.828683,19.0108648]}},{"type":"Feature","id":"node/9055082839","properties":{"amenity":"school","check_date":"2026-03-20","name":"Guru Nank English High School","id":"node/9055082839"},"geometry":{"type":"Point","coordinates":[72.8446515,19.0124003]}},{"type":"Feature","id":"node/9060641466","properties":{"amenity":"school","name":"Bhausaheb Hiray Vidyalaya","id":"node/9060641466"},"geometry":{"type":"Point","coordinates":[72.812634,18.973182]}},{"type":"Feature","id":"node/9060641467","properties":{"amenity":"college","name":"Bhausaheb Hiray College","id":"node/9060641467"},"geometry":{"type":"Point","coordinates":[72.812756,18.9734103]}},{"type":"Feature","id":"node/9060708505","properties":{"amenity":"college","name":"Babasaheb Gawde Institute of Management Studies","id":"node/9060708505"},"geometry":{"type":"Point","coordinates":[72.8219929,18.97074]}},{"type":"Feature","id":"node/9060840937","properties":{"amenity":"school","name":"VLN High School","id":"node/9060840937"},"geometry":{"type":"Point","coordinates":[72.8347508,18.9868553]}},{"type":"Feature","id":"node/9062426516","properties":{"amenity":"college","name":"Sasmira's Institute of Management Studies and Research","id":"node/9062426516"},"geometry":{"type":"Point","coordinates":[72.8198867,19.0101483]}},{"type":"Feature","id":"node/9062444517","properties":{"amenity":"college","name":"Sasmira's Institute of Man-made Textiles","id":"node/9062444517"},"geometry":{"type":"Point","coordinates":[72.8200915,19.0108465]}},{"type":"Feature","id":"node/12535576374","properties":{"amenity":"university","name":"college building","tag":"#college","id":"node/12535576374"},"geometry":{"type":"Point","coordinates":[72.8266365,18.9677617]}},{"type":"Feature","id":"node/13112025801","properties":{"addr:housenumber":"315","addr:postcode":"400004","addr:street":"Raja Ram Mohan Roy Road (Charni Road)","amenity":"college","name":"Hinduja College","id":"node/13112025801"},"geometry":{"type":"Point","coordinates":[72.8184681,18.9528083]}},{"type":"Feature","id":"node/13116847401","properties":{"addr:postcode":"400004","addr:street":"Khetwadi 12th Lane","amenity":"school","name":"Sant Gadge Maharaj School","id":"node/13116847401"},"geometry":{"type":"Point","coordinates":[72.8212203,18.9598574]}}]}